{
"type": "FeatureCollection",
"crs": { "type": "name", "properties": { "name": "urn:ogc:def:crs:OGC:1.3:CRS84" } },
"features": [
{ "type": "Feature", "properties": { "id": "location-AND", "url": "https:\/\/libwww.freelibrary.org\/locations\/andorra-library", "name": "Andorra Library", "address": "705 East Cathedral Road, Philadelphia, PA 19128-2106", "cross_streets": "(Henry Ave. & Cathedral Rd.)", "full_address": "705, Cathedral Road, Upper Roxborough, Philadelphia, Philadelphia County, Pennsylvania, 19128, United States of America", "lon": -75.239392475997036, "lat": 40.064286631695033 }, "geometry": { "type": "Point", "coordinates": [ -75.239392475997036, 40.064286631695033 ] } },
{ "type": "Feature", "properties": { "id": "location-COB", "url": "https:\/\/libwww.freelibrary.org\/locations\/blanche-a-nixoncobbs-creek-library", "name": "Blanche A. Nixon\/Cobbs Creek Library", "address": "5800 Cobbs Creek Parkway, Philadelphia, PA 19143-3036", "cross_streets": "(59th St. & Baltimore Ave.)", "full_address": "Cobbs Creek Parkway, Paschall, Philadelphia, Philadelphia County, Pennsylvania, 19142, United States of America", "lon": -75.246178, "lat": 39.918046 }, "geometry": { "type": "Point", "coordinates": [ -75.246178, 39.918046 ] } },
{ "type": "Feature", "properties": { "id": "location-BHR", "url": "https:\/\/libwww.freelibrary.org\/locations\/bushrod-library", "name": "Bushrod Library", "address": "6304 Castor Avenue, Philadelphia, PA 19149-2731", "cross_streets": "(Castor Ave. & Stirling St.)", "full_address": "Free Library of Philadelphia -Bushrod Branch, Castor Avenue, Oxford Circle, Cheltenham Village, Philadelphia, Philadelphia County, Pennsylvania, 19149, United States of America", "lon": -75.078576261408983, "lat": 40.03859475 }, "geometry": { "type": "Point", "coordinates": [ -75.078576261408983, 40.03859475 ] } },
{ "type": "Feature", "properties": { "id": "location-BUS", "url": "https:\/\/libwww.freelibrary.org\/locations\/bustleton-library", "name": "Bustleton Library", "address": "10199 Bustleton Avenue, Philadelphia, PA 19116-3718", "cross_streets": "(Verree Rd. & Bustleton Ave.)", "full_address": "10199, Bustleton Avenue, Pauls Run, Philadelphia, Philadelphia County, Pennsylvania, 19116, United States of America", "lon": -75.026133146346638, "lat": 40.108391673773376 }, "geometry": { "type": "Point", "coordinates": [ -75.026133146346638, 40.108391673773376 ] } },
{ "type": "Feature", "properties": { "id": "location-CBM", "url": "https:\/\/libwww.freelibrary.org\/locations\/cecil-b-moore-library", "name": "Cecil B. Moore Library", "address": "2320 Cecil B. Moore Avenue, Philadelphia, PA 19121-2927", "cross_streets": "(Cecil B. Moore & 23rd Street)", "full_address": "2320, Cecil B Moore Avenue, Strawberry Mansion, Philadelphia, Philadelphia County, Pennsylvania, 19121, United States of America", "lon": -75.172938816326536, "lat": 39.980559 }, "geometry": { "type": "Point", "coordinates": [ -75.172938816326536, 39.980559 ] } },
{ "type": "Feature", "properties": { "id": "location-DUR", "url": "https:\/\/libwww.freelibrary.org\/locations\/charles-l-durham-library", "name": "Charles L. Durham Library", "address": "3320 Haverford Avenue, Philadelphia, PA 19104-2021", "cross_streets": "(34th St. & Haverford Ave.)", "full_address": "3320, Haverford Avenue, Powelton Village, Philadelphia, Philadelphia County, Pennsylvania, 19104, United States of America", "lon": -75.190535979591843, "lat": 39.964088877551021 }, "geometry": { "type": "Point", "coordinates": [ -75.190535979591843, 39.964088877551021 ] } },
{ "type": "Feature", "properties": { "id": "location-SWK", "url": "https:\/\/libwww.freelibrary.org\/locations\/charles-santore-library", "name": "Charles Santore Library", "address": "932 South 7th Street, Philadelphia, PA 19147-2932", "cross_streets": "(7th & Carpenter Sts.)", "full_address": "Charles Santore Library, South 7th Street, Wharton, South Philadelphia, Philadelphia, Philadelphia County, Pennsylvania, 19147, United States of America", "lon": -75.155260631620649, "lat": 39.937091 }, "geometry": { "type": "Point", "coordinates": [ -75.155260631620649, 39.937091 ] } },
{ "type": "Feature", "properties": { "id": "location-CHH", "url": "https:\/\/libwww.freelibrary.org\/locations\/chestnut-hill-library", "name": "Chestnut Hill Library", "address": "8711 Germantown Avenue, Philadelphia, PA 19118-2716", "cross_streets": "(Germantown Ave. & Bethlehem Pike)", "full_address": "8711, Germantown Avenue, Chestnut Hill, Philadelphia, Philadelphia County, Pennsylvania, 19118, United States of America", "lon": -75.209762976744187, "lat": 40.077738395348838 }, "geometry": { "type": "Point", "coordinates": [ -75.209762976744187, 40.077738395348838 ] } },
{ "type": "Feature", "properties": { "id": "location-OGN", "url": "https:\/\/libwww.freelibrary.org\/locations\/david-cohen-ogontz-library", "name": "David Cohen Ogontz Library", "address": "6017 Ogontz Avenue, Philadelphia, PA 19141", "cross_streets": "(Church Lane & Ogontz Ave.)", "full_address": "6017, Ogontz Avenue, Somerville, Philadelphia, Philadelphia County, Pennsylvania, 19141, United States of America", "lon": -75.150839157446654, "lat": 40.046765011479195 }, "geometry": { "type": "Point", "coordinates": [ -75.150839157446654, 40.046765011479195 ] } },
{ "type": "Feature", "properties": { "id": "location-ESW", "url": "https:\/\/libwww.freelibrary.org\/locations\/eastwick-library", "name": "Eastwick Library", "address": "2851 Island Avenue, Philadelphia, PA 19153-2314", "cross_streets": "(Island Ave. & Lindbergh Blvd.)", "full_address": "2851, Island Avenue, Eastwick, Philadelphia, Philadelphia County, Pennsylvania, 19153, United States of America", "lon": -75.240800421882597, "lat": 39.906979389806907 }, "geometry": { "type": "Point", "coordinates": [ -75.240800421882597, 39.906979389806907 ] } },
{ "type": "Feature", "properties": { "id": "location-FAL", "url": "https:\/\/libwww.freelibrary.org\/locations\/falls-of-schuylkill-library", "name": "Falls of Schuylkill Library", "address": "3501 Midvale Avenue, Philadelphia, PA 19129-1633", "cross_streets": "(Warden Dr. & Midvale Ave.)", "full_address": "3501, Midvale Avenue, East Falls, Philadelphia, Philadelphia County, Pennsylvania, 19129, United States of America", "lon": -75.192052, "lat": 40.014143 }, "geometry": { "type": "Point", "coordinates": [ -75.192052, 40.014143 ] } },
{ "type": "Feature", "properties": { "id": "location-FSH", "url": "https:\/\/libwww.freelibrary.org\/locations\/fishtown-community-library", "name": "Fishtown Community Library", "address": "1217 East Montgomery Avenue, Philadelphia, PA 19125-3445", "cross_streets": "(Montgomery Ave. & Flora St.)", "full_address": "1217, East Montgomery Avenue, Fishtown, Philadelphia, Philadelphia County, Pennsylvania, 19125, United States of America", "lon": -75.127327285714287, "lat": 39.971966775510204 }, "geometry": { "type": "Point", "coordinates": [ -75.127327285714287, 39.971966775510204 ] } },
{ "type": "Feature", "properties": { "id": "location-FOX", "url": "https:\/\/libwww.freelibrary.org\/locations\/fox-chase-library", "name": "Fox Chase Library", "address": "501 Rhawn Street, Philadelphia, PA 19111-2504", "cross_streets": "(Rhawn & Jeanes Sts.)", "full_address": "501, Rhawn Street, Fox Chase, Philadelphia, Philadelphia County, Pennsylvania, 19111, United States of America", "lon": -75.082314, "lat": 40.076599 }, "geometry": { "type": "Point", "coordinates": [ -75.082314, 40.076599 ] } },
{ "type": "Feature", "properties": { "id": "location-FRK", "url": "https:\/\/libwww.freelibrary.org\/locations\/frankford-library", "name": "Frankford Library", "address": "4634 Frankford Avenue, Philadelphia, PA 19124-5804", "cross_streets": "(Frankford Ave. & Overington St.)", "full_address": "4634, Frankford Avenue, Frankford, Philadelphia, Philadelphia County, Pennsylvania, 19124, United States of America", "lon": -75.084908052631576, "lat": 40.015583684210526 }, "geometry": { "type": "Point", "coordinates": [ -75.084908052631576, 40.015583684210526 ] } },
{ "type": "Feature", "properties": { "id": "location-FFB", "url": "https:\/\/libwww.freelibrary.org\/locations\/fumo-family-library", "name": "Fumo Family Library", "address": "2437 South Broad Street, Philadelphia, PA 19148-3508", "cross_streets": "(Porter & Broad St.)", "full_address": "2437, South Broad Street, Lower Moyamensing, South Philadelphia, Philadelphia, Philadelphia County, Pennsylvania, 19148, United States of America", "lon": -75.170439829787227, "lat": 39.920162893617025 }, "geometry": { "type": "Point", "coordinates": [ -75.170439829787227, 39.920162893617025 ] } },
{ "type": "Feature", "properties": { "id": "location-GRO", "url": "https:\/\/libwww.freelibrary.org\/locations\/greater-olney-library", "name": "Greater Olney Library", "address": "5501 North 5th Street, Philadelphia, PA 19120-2805", "cross_streets": "(5th St. and Tabor Rd.)", "full_address": "5501, N 5th Street, Olney, Philadelphia, Philadelphia County, Pennsylvania, 19120, United States of America", "lon": -75.130747, "lat": 40.034852 }, "geometry": { "type": "Point", "coordinates": [ -75.130747, 40.034852 ] } },
{ "type": "Feature", "properties": { "id": "location-HAD", "url": "https:\/\/libwww.freelibrary.org\/locations\/haddington-library", "name": "Haddington Library", "address": "446 North 65th Street, Philadelphia, PA 19151-4003", "cross_streets": "(65th Street & Girard Avenue)", "full_address": "446, North 65th Street, Haddington, Philadelphia, Philadelphia County, Pennsylvania, 19151, United States of America", "lon": -75.249449673469385, "lat": 39.970068816326531 }, "geometry": { "type": "Point", "coordinates": [ -75.249449673469385, 39.970068816326531 ] } },
{ "type": "Feature", "properties": { "id": "location-HAV", "url": "https:\/\/libwww.freelibrary.org\/locations\/haverford-library", "name": "Haverford Library", "address": "5543 Haverford Avenue, Philadelphia, PA 19139-1432", "cross_streets": "(56th St. & Haverford Ave.)", "full_address": "5543, Haverford Avenue, Garden Court, Philadelphia, Philadelphia County, Pennsylvania, 19139, United States of America", "lon": -75.230725571428565, "lat": 39.96723442857143 }, "geometry": { "type": "Point", "coordinates": [ -75.230725571428565, 39.96723442857143 ] } },
{ "type": "Feature", "properties": { "id": "location-HOL", "url": "https:\/\/libwww.freelibrary.org\/locations\/holmesburg-library", "name": "Holmesburg Library", "address": "7810 Frankford Avenue, Philadelphia, PA 19136-3013", "cross_streets": "(Frankford Ave. & Hartel St.)", "full_address": "7810, Frankford Avenue, Holmesburg, Philadelphia, Philadelphia County, Pennsylvania, 19136, United States of America", "lon": -75.031125444444442, "lat": 40.040405222222219 }, "geometry": { "type": "Point", "coordinates": [ -75.031125444444442, 40.040405222222219 ] } },
{ "type": "Feature", "properties": { "id": "location-IND", "url": "https:\/\/libwww.freelibrary.org\/locations\/independence-library", "name": "Independence Library", "address": "18 S. 7th Street, Philadelphia, PA 19106", "cross_streets": "(7th Street between Market & Chestnut)", "full_address": "Constitution High School, South 7th Street, Society Hill, Philadelphia, Philadelphia County, Pennsylvania, 19107, United States of America", "lon": -75.152440604445985, "lat": 39.9502748 }, "geometry": { "type": "Point", "coordinates": [ -75.152440604445985, 39.9502748 ] } },
{ "type": "Feature", "properties": { "id": "location-NWR", "url": "https:\/\/libwww.freelibrary.org\/locations\/joseph-e-coleman-northwest-regional-library", "name": "Joseph E. Coleman Northwest Regional Library", "address": "68 West Chelten Avenue, Philadelphia, PA 19144-2795", "cross_streets": "(Greene St. & Chelten Ave.)", "full_address": "68, West Chelten Avenue, Germantown, Philadelphia, Philadelphia County, Pennsylvania, 19144, United States of America", "lon": -75.175820437499993, "lat": 40.034620125000004 }, "geometry": { "type": "Point", "coordinates": [ -75.175820437499993, 40.034620125 ] } },
{ "type": "Feature", "properties": { "id": "location-KDR", "url": "https:\/\/libwww.freelibrary.org\/locations\/katharine-drexel-library", "name": "Katharine Drexel Library", "address": "11099 Knights Road, Philadelphia, PA 19154-3516", "cross_streets": "(Knights & Fairdale Rds.)", "full_address": "11099, Knights Road, Longmead Farms, Philadelphia, Philadelphia County, Pennsylvania, 19154, United States of America", "lon": -74.975076529411766, "lat": 40.082685019607844 }, "geometry": { "type": "Point", "coordinates": [ -74.975076529411766, 40.082685019607844 ] } },
{ "type": "Feature", "properties": { "id": "location-KEN", "url": "https:\/\/libwww.freelibrary.org\/locations\/kensington-library", "name": "Kensington Library", "address": "104 West Dauphin Street, Philadelphia, PA 19133-3701", "cross_streets": "(Hope & Dauphin Sts.)", "full_address": "104, West Dauphin Street, Kensington, Philadelphia, Philadelphia County, Pennsylvania, 19133, United States of America", "lon": -75.132613, "lat": 39.98476 }, "geometry": { "type": "Point", "coordinates": [ -75.132613, 39.98476 ] } },
{ "type": "Feature", "properties": { "id": "location-KNG", "url": "https:\/\/libwww.freelibrary.org\/locations\/kingsessing-library", "name": "Kingsessing Library", "address": "1201 South 51st Street, Philadelphia, PA 19143-4353", "cross_streets": "(5lst St. between Kingsessing and Chester Avenues)", "full_address": "Friends of the Kingsessing Library Food Pantry, South 51st Street, Spruce Hill, Philadelphia, Philadelphia County, Pennsylvania, 19143, United States of America", "lon": -75.2182486, "lat": 39.942075 }, "geometry": { "type": "Point", "coordinates": [ -75.2182486, 39.942075 ] } },
{ "type": "Feature", "properties": { "id": "location-LWN", "url": "https:\/\/libwww.freelibrary.org\/locations\/lawncrest-library", "name": "Lawncrest Library", "address": "6098 Rising Sun Avenue, Philadelphia, PA 19111-6009", "cross_streets": "(Rising Sun Ave. & Comly Street)", "full_address": "6098, Rising Sun Avenue, Lawncrest, Philadelphia, Philadelphia County, Pennsylvania, 19111, United States of America", "lon": -75.099756, "lat": 40.046038 }, "geometry": { "type": "Point", "coordinates": [ -75.099756, 40.046038 ] } },
{ "type": "Feature", "properties": { "id": "location-LEH", "url": "https:\/\/libwww.freelibrary.org\/locations\/lillian-marrero-library", "name": "Lillian Marrero Library", "address": "601 West Lehigh Avenue, Philadelphia, PA 19133-2228", "cross_streets": "(6th St. & Lehigh Ave.)", "full_address": "Lillian Marrero Library, West Lehigh Avenue, West Kensington, Philadelphia, Philadelphia County, Pennsylvania, 19133, United States of America", "lon": -75.142486263201974, "lat": 39.9927733 }, "geometry": { "type": "Point", "coordinates": [ -75.142486263201974, 39.9927733 ] } },
{ "type": "Feature", "properties": { "id": "location-LOG", "url": "https:\/\/libwww.freelibrary.org\/locations\/logan-library", "name": "Logan Library", "address": "1333 Wagner Avenue, Philadelphia, PA 19141-2916", "cross_streets": "(Wagner Ave. & Old York Rd.)", "full_address": "1333, Wagner Avenue, Tabor, Philadelphia, Philadelphia County, Pennsylvania, 19141, United States of America", "lon": -75.144649653061222, "lat": 40.031920612244896 }, "geometry": { "type": "Point", "coordinates": [ -75.144649653061222, 40.031920612244896 ] } },
{ "type": "Feature", "properties": { "id": "location-LOV", "url": "https:\/\/libwww.freelibrary.org\/locations\/lovett-memorial-library", "name": "Lovett Memorial Library", "address": "6945 Germantown Avenue, Philadelphia, PA 19119-2189", "cross_streets": "(Germantown Ave. & Sedgwick St.)", "full_address": "6945, Germantown Avenue, Germantown, Philadelphia, Philadelphia County, Pennsylvania, 19119, United States of America", "lon": -75.187559489795916, "lat": 40.056162489795916 }, "geometry": { "type": "Point", "coordinates": [ -75.187559489795916, 40.056162489795916 ] } },
{ "type": "Feature", "properties": { "id": "location-WPR", "url": "https:\/\/libwww.freelibrary.org\/locations\/lucien-e-blackwell-west-philadelphia-regional-library", "name": "Lucien E. Blackwell West Philadelphia Regional Library", "address": "125 South 52nd Street, Philadelphia, PA 19139-3408", "cross_streets": "(West Phila. Regional 52nd & Sansom Sts.)", "full_address": "125, South 52nd Street, Garden Court, Philadelphia, Philadelphia County, Pennsylvania, 19139, United States of America", "lon": -75.225272, "lat": 39.957579 }, "geometry": { "type": "Point", "coordinates": [ -75.225272, 39.957579 ] } },
{ "type": "Feature", "properties": { "id": "location-MPS", "url": "https:\/\/libwww.freelibrary.org\/locations\/mcpherson-square-library", "name": "McPherson Square Library", "address": "601 East Indiana Avenue, Philadelphia, PA 19134-3042", "cross_streets": "(Indiana Ave. & \"F\" St.)", "full_address": "McPherson Library, East Indiana Avenue, Chopersville, Philadelphia, Philadelphia County, Pennsylvania, 19134, United States of America", "lon": -75.118842180406574, "lat": 39.9948464 }, "geometry": { "type": "Point", "coordinates": [ -75.118842180406574, 39.9948464 ] } },
{ "type": "Feature", "properties": { "id": "location-NIC", "url": "https:\/\/libwww.freelibrary.org\/locations\/nicetown-tioga-library", "name": "Nicetown-Tioga Library", "address": "3720 North Broad Street, Philadelphia, PA 19140-3608", "cross_streets": "(Broad St. & Erie Ave.)", "full_address": "Nicetown-Tioga Branch, North Broad Street, Nicetown, Philadelphia, Philadelphia County, Pennsylvania, 19140, United States of America", "lon": -75.1513076, "lat": 40.0099672 }, "geometry": { "type": "Point", "coordinates": [ -75.1513076, 40.0099672 ] } },
{ "type": "Feature", "properties": { "id": "location-NER", "url": "https:\/\/libwww.freelibrary.org\/locations\/northeast-regional-library", "name": "Northeast Regional Library", "address": "2228 Cottman Avenue, Philadelphia, PA 19149-1297", "cross_streets": "(Cottman Ave. & Oakland St.)", "full_address": "Northeast Regional Library, Cottman Avenue, Rhawnhurst, Philadelphia, Philadelphia County, Pennsylvania, 19149, United States of America", "lon": -75.061499679813309, "lat": 40.04814365 }, "geometry": { "type": "Point", "coordinates": [ -75.061499679813309, 40.04814365 ] } },
{ "type": "Feature", "properties": { "id": "location-OAK", "url": "https:\/\/libwww.freelibrary.org\/locations\/oak-lane-library", "name": "Oak Lane Library", "address": "6614 North 12th Street, Philadelphia, PA 19126-3299", "cross_streets": "(12th St. & Oak Lane)", "full_address": "6614, North 12th Street, Fern Rock, Philadelphia, Philadelphia County, Pennsylvania, 19126, United States of America", "lon": -75.137801142857143, "lat": 40.053462142857143 }, "geometry": { "type": "Point", "coordinates": [ -75.137801142857143, 40.053462142857143 ] } },
{ "type": "Feature", "properties": { "id": "location-OVP", "url": "https:\/\/libwww.freelibrary.org\/locations\/overbrook-park-library", "name": "Overbrook Park Library", "address": "7422 Haverford Avenue, Philadelphia, PA 19151-2995", "cross_streets": "(Haverford Ave. & Woodbine St.)", "full_address": "Haverford Avenue, Carroll Park, Philadelphia, Philadelphia County, Pennsylvania, 19151, United States of America", "lon": -75.2437967, "lat": 39.9717417 }, "geometry": { "type": "Point", "coordinates": [ -75.2437967, 39.9717417 ] } },
{ "type": "Feature", "properties": { "id": "location-CEN", "url": "https:\/\/libwww.freelibrary.org\/locations\/parkway-central-library", "name": "Parkway Central Library", "address": "1901 Vine Street, Philadelphia, PA 19103", "cross_streets": "(between 19th and 20th Streets on the Parkway)\nDepartments", "full_address": "Parkway Central Library, Vine Street, Spring Garden, Philadelphia, Philadelphia County, Pennsylvania, 19103, United States of America", "lon": -75.171019861055456, "lat": 39.95959125 }, "geometry": { "type": "Point", "coordinates": [ -75.171019861055456, 39.95959125 ] } },
{ "type": "Feature", "properties": { "id": "location-PAC", "url": "https:\/\/libwww.freelibrary.org\/locations\/paschalville-library", "name": "Paschalville Library", "address": "6942 Woodland Avenue, Philadelphia, PA 19142-1823", "cross_streets": "(70th St. & Woodland Ave.)", "full_address": "6942, Woodland Avenue, Paschall, Philadelphia, Philadelphia County, Pennsylvania, 19142, United States of America", "lon": -75.240577, "lat": 39.921060142857144 }, "geometry": { "type": "Point", "coordinates": [ -75.240577, 39.921060142857144 ] } },
{ "type": "Feature", "properties": { "id": "location-PCI", "url": "https:\/\/libwww.freelibrary.org\/locations\/philadelphia-city-institute", "name": "Philadelphia City Institute", "address": "1905 Locust Street, Philadelphia, PA 19103-5730", "cross_streets": "(19th & Locust on W. Rittenhouse Square)", "full_address": "1905, Locust Street, Rittenhouse Square, Philadelphia, Philadelphia County, Pennsylvania, 19103, United States of America", "lon": -75.173155544469978, "lat": 39.949356414316881 }, "geometry": { "type": "Point", "coordinates": [ -75.173155544469978, 39.949356414316881 ] } },
{ "type": "Feature", "properties": { "id": "location-QMB", "url": "https:\/\/libwww.freelibrary.org\/locations\/queen-memorial-library", "name": "Queen Memorial Library", "address": "1201 South 23rd Street, Philadelphia, PA 19146-4316", "cross_streets": "(Federal St. between 22nd & 23rd)", "full_address": "Landreth School, South 23rd Street, Girard Estates, South Philadelphia, Philadelphia, Philadelphia County, Pennsylvania, 19146, United States of America", "lon": -75.1815651, "lat": 39.9378214 }, "geometry": { "type": "Point", "coordinates": [ -75.1815651, 39.9378214 ] } },
{ "type": "Feature", "properties": { "id": "location-RGR", "url": "https:\/\/libwww.freelibrary.org\/locations\/ramonita-g-de-rodriguez-library", "name": "Ramonita G. de Rodriguez Library", "address": "600 West Girard Avenue, Philadelphia, PA 19123-1311", "cross_streets": "(6th St. & Girard Ave.)", "full_address": "Free Library of Philadelphia, Ramonita G. de Rodriguez Branch, West Girard Avenue, Olde Kensington, Philadelphia, Philadelphia County, Pennsylvania, 19130, United States of America", "lon": -75.1468676, "lat": 39.97014 }, "geometry": { "type": "Point", "coordinates": [ -75.1468676, 39.97014 ] } },
{ "type": "Feature", "properties": { "id": "location-RIC", "url": "https:\/\/libwww.freelibrary.org\/locations\/richmond-library", "name": "Richmond Library", "address": "2987 Almond Street, Philadelphia, PA 19134-4955", "cross_streets": "(Indiana Ave. & Almond St.)", "full_address": "Richmond Library, Almond Street, Port Richmond Polish Neighborhood, Philadelphia, Philadelphia County, Pennsylvania, 19134, United States of America", "lon": -75.10835839283088, "lat": 39.9828191 }, "geometry": { "type": "Point", "coordinates": [ -75.10835839283088, 39.9828191 ] } },
{ "type": "Feature", "properties": { "id": "location-ROS", "url": "https:\/\/libwww.freelibrary.org\/locations\/the-rosenbach", "name": "The Rosenbach", "address": "2008-2010 Delancey Place, Philadelphia, PA 19103", "cross_streets": "Philadelphia, PA 19103", "full_address": "2008, Delancey Place, Rittenhouse Square, Philadelphia, Philadelphia County, Pennsylvania, 19103, United States of America", "lon": -75.174795836734702, "lat": 39.947371408163264 }, "geometry": { "type": "Point", "coordinates": [ -75.174795836734702, 39.947371408163264 ] } },
{ "type": "Feature", "properties": { "id": "location-ROX", "url": "https:\/\/libwww.freelibrary.org\/locations\/roxborough-library", "name": "Roxborough Library", "address": "6245 Ridge Avenue, Philadelphia, PA 19128-2630", "cross_streets": "(Ridge Ave. & Hermitage St.)", "full_address": "6245, Ridge Avenue, Glen Willow, Philadelphia, Philadelphia County, Pennsylvania, 19128, United States of America", "lon": -75.218211271309343, "lat": 40.036495337518005 }, "geometry": { "type": "Point", "coordinates": [ -75.218211271309343, 40.036495337518005 ] } },
{ "type": "Feature", "properties": { "id": "location-SPB", "url": "https:\/\/libwww.freelibrary.org\/locations\/south-philadelphia-library", "name": "South Philadelphia Library", "address": "1700 South Broad Street, Philadelphia, PA 19145-2392", "cross_streets": "(Broad & Morris Sts.)", "full_address": "South Philadelphia Community Health and Literacy Center, South Broad Street, Hawthorne, South Philadelphia, Philadelphia, Philadelphia County, Pennsylvania, 19145, United States of America", "lon": -75.16931329148936, "lat": 39.9290717 }, "geometry": { "type": "Point", "coordinates": [ -75.16931329148936, 39.9290717 ] } },
{ "type": "Feature", "properties": { "id": "location-TAC", "url": "https:\/\/libwww.freelibrary.org\/locations\/tacony-library", "name": "Tacony Library", "address": "6742 Torresdale Avenue, Philadelphia, PA 19135-2416", "cross_streets": "(Torresdale Ave. & Knorr St.)", "full_address": "6742, Torresdale Avenue, Tacony, Philadelphia, Philadelphia County, Pennsylvania, 19135, United States of America", "lon": -75.045806571428571, "lat": 40.024721285714286 }, "geometry": { "type": "Point", "coordinates": [ -75.045806571428571, 40.024721285714286 ] } },
{ "type": "Feature", "properties": { "id": "location-TOR", "url": "https:\/\/libwww.freelibrary.org\/locations\/torresdale-library", "name": "Torresdale Library", "address": "3079 Holme Avenue, Philadelphia, PA 19136-1101", "cross_streets": "(Holme Ave. & Willits Rd.)", "full_address": "3079, Holme Avenue, Pennypack Woods, Philadelphia, Philadelphia County, Pennsylvania, 19136, United States of America", "lon": -75.017384690909097, "lat": 40.056700472727272 }, "geometry": { "type": "Point", "coordinates": [ -75.017384690909097, 40.056700472727272 ] } },
{ "type": "Feature", "properties": { "id": "location-WAD", "url": "https:\/\/libwww.freelibrary.org\/locations\/wadsworth-library", "name": "Wadsworth Library", "address": "1500 Wadsworth Avenue, Philadelphia, PA 19150-1699", "cross_streets": "(Wadsworth & Michener Aves.)", "full_address": "Wadsworth Avenue, Mount Airy, Philadelphia, Philadelphia County, Pennsylvania, 19119, United States of America", "lon": -75.185948, "lat": 40.067437 }, "geometry": { "type": "Point", "coordinates": [ -75.185948, 40.067437 ] } },
{ "type": "Feature", "properties": { "id": "location-WAL", "url": "https:\/\/libwww.freelibrary.org\/locations\/walnut-street-west", "name": "Walnut Street West", "address": "201 South 40th Street, Philadelphia, PA 19104", "cross_streets": "(40th & Walnut Streets)", "full_address": "Walnut Street West Branch, South 40th Street, Southwest Schuylkill, Philadelphia, Philadelphia County, Pennsylvania, 19104, United States of America", "lon": -75.202467704842746, "lat": 39.95379045 }, "geometry": { "type": "Point", "coordinates": [ -75.202467704842746, 39.95379045 ] } },
{ "type": "Feature", "properties": { "id": "location-WEL", "url": "https:\/\/libwww.freelibrary.org\/locations\/welsh-road-library", "name": "Welsh Road Library", "address": "9233 Roosevelt Boulevard, Philadelphia, PA 19114-2205", "cross_streets": "(Welsh Road & Roosevelt Blvd.)", "full_address": "9233, Roosevelt Boulevard, Lagrange, Philadelphia, Philadelphia County, Pennsylvania, 19114, United States of America", "lon": -75.034121632653068, "lat": 40.074686418367349 }, "geometry": { "type": "Point", "coordinates": [ -75.034121632653068, 40.074686418367349 ] } },
{ "type": "Feature", "properties": { "id": "location-WOL", "url": "https:\/\/libwww.freelibrary.org\/locations\/west-oak-lane-library", "name": "West Oak Lane Library", "address": "2000 E Washington Lane, Philadelphia, PA 19138-1344", "cross_streets": "(74th Ave & Washington Lane)", "full_address": "2000, East Washington Lane, West Oak Lane, Philadelphia, Philadelphia County, Pennsylvania, 19138, United States of America", "lon": -75.158111, "lat": 40.067007 }, "geometry": { "type": "Point", "coordinates": [ -75.158111, 40.067007 ] } },
{ "type": "Feature", "properties": { "id": "location-WHT", "url": "https:\/\/libwww.freelibrary.org\/locations\/whitman-library", "name": "Whitman Library", "address": "200 Snyder Avenue, Philadelphia, PA 19148-2620", "cross_streets": "(2nd St. & Snyder Ave.)", "full_address": "Snyder Avenue, Hawthorne, South Philadelphia, Philadelphia, Philadelphia County, Pennsylvania, 19148-9996, United States of America", "lon": -75.1697502, "lat": 39.9243806 }, "geometry": { "type": "Point", "coordinates": [ -75.1697502, 39.9243806 ] } },
{ "type": "Feature", "properties": { "id": "location-WID", "url": "https:\/\/libwww.freelibrary.org\/locations\/widener-library", "name": "Widener Library", "address": "2808 West Lehigh Avenue, Philadelphia, PA 19132-3296", "cross_streets": "(28th & Lehigh Ave.)", "full_address": "2808, West Lehigh Avenue, Allegheny West, Philadelphia, Philadelphia County, Pennsylvania, 19132, United States of America", "lon": -75.177199230769233, "lat": 39.996784461538461 }, "geometry": { "type": "Point", "coordinates": [ -75.177199230769233, 39.996784461538461 ] } },
{ "type": "Feature", "properties": { "id": "location-WYN", "url": "https:\/\/libwww.freelibrary.org\/locations\/wynnefield-library", "name": "Wynnefield Library", "address": "5325 Overbrook Avenue, Philadelphia, PA 19131-1498", "cross_streets": "(54th St. & Overbrook Ave.)", "full_address": "5325, Overbrook Avenue, Wynnefield, Philadelphia, Philadelphia County, Pennsylvania, 19131, United States of America", "lon": -75.233478315217397, "lat": 39.994937684782606 }, "geometry": { "type": "Point", "coordinates": [ -75.233478315217397, 39.994937684782606 ] } },
{ "type": "Feature", "properties": { "id": "location-WYO", "url": "https:\/\/libwww.freelibrary.org\/locations\/wyoming-library", "name": "Wyoming Library", "address": "231 East Wyoming Avenue, Philadelphia, PA 19120-4439", "cross_streets": "(Wyoming Ave. & \"B\" St.)", "full_address": "231, East Wyoming Avenue, Feltonville, Philadelphia, Philadelphia County, Pennsylvania, 19120, United States of America", "lon": -75.121253540540536, "lat": 40.02125791891892 }, "geometry": { "type": "Point", "coordinates": [ -75.121253540540536, 40.02125791891892 ] } }
]
}
