<?xml version="1.0" encoding="UTF-8"?>
<kml xmlns="http://www.opengis.net/kml/2.2">
  <Document>
    <name>Directions from Liberty Bell, Market Street, Philadelphia, PA to 3620 Walnut Street, Philadelphia, PA</name>
    <Style id="icon-1899-DB4436-nodesc-normal">
      <IconStyle>
        <color>ff3644db</color>
        <scale>1</scale>
        <Icon>
          <href>https://www.gstatic.com/mapspro/images/stock/503-wht-blank_maps.png</href>
        </Icon>
        <hotSpot x="32" xunits="pixels" y="64" yunits="insetPixels"/>
      </IconStyle>
      <LabelStyle>
        <scale>0</scale>
      </LabelStyle>
      <BalloonStyle>
        <text><![CDATA[<h3>$[name]</h3>]]></text>
      </BalloonStyle>
    </Style>
    <Style id="icon-1899-DB4436-nodesc-highlight">
      <IconStyle>
        <color>ff3644db</color>
        <scale>1</scale>
        <Icon>
          <href>https://www.gstatic.com/mapspro/images/stock/503-wht-blank_maps.png</href>
        </Icon>
        <hotSpot x="32" xunits="pixels" y="64" yunits="insetPixels"/>
      </IconStyle>
      <LabelStyle>
        <scale>1</scale>
      </LabelStyle>
      <BalloonStyle>
        <text><![CDATA[<h3>$[name]</h3>]]></text>
      </BalloonStyle>
    </Style>
    <StyleMap id="icon-1899-DB4436-nodesc">
      <Pair>
        <key>normal</key>
        <styleUrl>#icon-1899-DB4436-nodesc-normal</styleUrl>
      </Pair>
      <Pair>
        <key>highlight</key>
        <styleUrl>#icon-1899-DB4436-nodesc-highlight</styleUrl>
      </Pair>
    </StyleMap>
    <Style id="line-1267FF-5000-nodesc-normal">
      <LineStyle>
        <color>ffff6712</color>
        <width>5</width>
      </LineStyle>
      <BalloonStyle>
        <text><![CDATA[<h3>$[name]</h3>]]></text>
      </BalloonStyle>
    </Style>
    <Style id="line-1267FF-5000-nodesc-highlight">
      <LineStyle>
        <color>ffff6712</color>
        <width>7.5</width>
      </LineStyle>
      <BalloonStyle>
        <text><![CDATA[<h3>$[name]</h3>]]></text>
      </BalloonStyle>
    </Style>
    <StyleMap id="line-1267FF-5000-nodesc">
      <Pair>
        <key>normal</key>
        <styleUrl>#line-1267FF-5000-nodesc-normal</styleUrl>
      </Pair>
      <Pair>
        <key>highlight</key>
        <styleUrl>#line-1267FF-5000-nodesc-highlight</styleUrl>
      </Pair>
    </StyleMap>
    <Placemark>
      <name>Directions from Liberty Bell, Market Street, Philadelphia, PA to 3620 Walnut Street, Philadelphia, PA</name>
      <styleUrl>#line-1267FF-5000-nodesc</styleUrl>
      <LineString>
        <tessellate>1</tessellate>
        <coordinates>
          -75.15013,39.9496,0
          -75.15012,39.94966,0
          -75.15012,39.94974,0
          -75.15003,39.95016,0
          -75.15003,39.95021,0
          -75.15002,39.95026,0
          -75.15,39.95039,0
          -75.14994,39.95064,0
          -75.14993,39.95069,0
          -75.14995,39.95069,0
          -75.15017,39.95073,0
          -75.15021,39.95073,0
          -75.15028,39.95074,0
          -75.15037,39.95075,0
          -75.15051,39.95076,0
          -75.15058,39.95077,0
          -75.15065,39.95077,0
          -75.15072,39.95078,0
          -75.15082,39.9508,0
          -75.15083,39.9508,0
          -75.15086,39.9508,0
          -75.15089,39.95081,0
          -75.15096,39.95081,0
          -75.15109,39.95083,0
          -75.15126,39.95085,0
          -75.15147,39.95088,0
          -75.1515,39.95088,0
          -75.15176,39.95092,0
          -75.15182,39.95092,0
          -75.15183,39.95092,0
          -75.152,39.95095,0
          -75.15214,39.95096,0
          -75.15244,39.951,0
          -75.15247,39.951,0
          -75.15261,39.95102,0
          -75.15281,39.95104,0
          -75.15303,39.95107,0
          -75.15304,39.95107,0
          -75.15307,39.95108,0
          -75.15345,39.95112,0
          -75.15359,39.95114,0
          -75.15373,39.95116,0
          -75.15404,39.95119,0
          -75.15414,39.95121,0
          -75.15419,39.95121,0
          -75.155,39.95131,0
          -75.15507,39.95132,0
          -75.15517,39.95133,0
          -75.15525,39.95133,0
          -75.15531,39.95134,0
          -75.15534,39.95135,0
          -75.15569,39.9514,0
          -75.15572,39.9514,0
          -75.15573,39.9514,0
          -75.15575,39.95141,0
          -75.15582,39.95142,0
          -75.15591,39.95143,0
          -75.15604,39.95144,0
          -75.15618,39.95146,0
          -75.15621,39.95146,0
          -75.15622,39.95146,0
          -75.15628,39.95147,0
          -75.15631,39.95148,0
          -75.15659,39.95151,0
          -75.1566,39.95151,0
          -75.15674,39.95153,0
          -75.15683,39.95154,0
          -75.15686,39.95154,0
          -75.15698,39.95156,0
          -75.15721,39.95159,0
          -75.15746,39.95162,0
          -75.15759,39.95164,0
          -75.15776,39.95166,0
          -75.15779,39.95166,0
          -75.15781,39.95166,0
          -75.15801,39.95169,0
          -75.15823,39.95172,0
          -75.15831,39.95173,0
          -75.15844,39.95174,0
          -75.15892,39.9518,0
          -75.15895,39.9518,0
          -75.1591,39.95182,0
          -75.1593,39.95185,0
          -75.15943,39.95186,0
          -75.15969,39.9519,0
          -75.15989,39.95192,0
          -75.16004,39.95194,0
          -75.16006,39.95194,0
          -75.16007,39.95194,0
          -75.16058,39.952,0
          -75.16087,39.95205,0
          -75.1609,39.95205,0
          -75.1613,39.9521,0
          -75.16144,39.95212,0
          -75.16158,39.95213,0
          -75.16161,39.95213,0
          -75.16213,39.9522,0
          -75.16226,39.95222,0
          -75.1624,39.95232,0
          -75.16241,39.95233,0
          -75.16243,39.95234,0
          -75.16245,39.95235,0
          -75.16246,39.95237,0
          -75.16255,39.95248,0
          -75.16252,39.9526,0
          -75.16251,39.95264,0
          -75.16247,39.95281,0
          -75.16246,39.95282,0
          -75.16245,39.95288,0
          -75.16265,39.95292,0
          -75.16273,39.95295,0
          -75.16285,39.95303,0
          -75.16291,39.95306,0
          -75.16309,39.95309,0
          -75.16312,39.9531,0
          -75.16314,39.95311,0
          -75.16324,39.95313,0
          -75.1634,39.95316,0
          -75.16345,39.95317,0
          -75.1636,39.95319,0
          -75.16372,39.9532,0
          -75.16378,39.9532,0
          -75.16388,39.95321,0
          -75.16404,39.9532,0
          -75.16409,39.95319,0
          -75.16414,39.95319,0
          -75.1642,39.95318,0
          -75.16423,39.95317,0
          -75.16425,39.95316,0
          -75.16426,39.95315,0
          -75.16427,39.95311,0
          -75.16436,39.95313,0
          -75.16446,39.95315,0
          -75.16452,39.95316,0
          -75.16457,39.95318,0
          -75.16463,39.95321,0
          -75.16466,39.95303,0
          -75.1647,39.95287,0
          -75.1648,39.95285,0
          -75.16484,39.95283,0
          -75.16488,39.95281,0
          -75.16491,39.95279,0
          -75.16492,39.95278,0
          -75.16495,39.95275,0
          -75.16497,39.95272,0
          -75.16499,39.95268,0
          -75.16503,39.95256,0
          -75.16504,39.95251,0
          -75.16505,39.95246,0
          -75.16505,39.95243,0
          -75.16526,39.95246,0
          -75.16527,39.95238,0
          -75.16531,39.95218,0
          -75.16532,39.95214,0
          -75.16534,39.95205,0
          -75.16539,39.95191,0
          -75.16544,39.95175,0
          -75.16547,39.95167,0
          -75.16549,39.95159,0
          -75.1655,39.95154,0
          -75.16551,39.95151,0
          -75.16552,39.95146,0
          -75.16553,39.95142,0
          -75.16556,39.95128,0
          -75.16557,39.95127,0
          -75.16558,39.95121,0
          -75.16558,39.9512,0
          -75.16559,39.95118,0
          -75.1656,39.95109,0
          -75.16561,39.95103,0
          -75.16562,39.951,0
          -75.16563,39.95097,0
          -75.1657,39.95067,0
          -75.16571,39.95065,0
          -75.16572,39.95059,0
          -75.16574,39.95054,0
          -75.16577,39.9504,0
          -75.16579,39.95032,0
          -75.16589,39.95033,0
          -75.16624,39.95038,0
          -75.16647,39.95041,0
          -75.1667,39.95044,0
          -75.16671,39.95044,0
          -75.16678,39.95045,0
          -75.16694,39.95047,0
          -75.16717,39.95049,0
          -75.16736,39.95052,0
          -75.16746,39.95053,0
          -75.16775,39.95057,0
          -75.16793,39.95059,0
          -75.16801,39.9506,0
          -75.16802,39.9506,0
          -75.16825,39.95063,0
          -75.16893,39.95071,0
          -75.16963,39.9508,0
          -75.16992,39.95084,0
          -75.17051,39.95091,0
          -75.1712,39.95099,0
          -75.17128,39.951,0
          -75.17143,39.95102,0
          -75.17144,39.95102,0
          -75.17167,39.95105,0
          -75.17191,39.95108,0
          -75.17209,39.9511,0
          -75.17217,39.95111,0
          -75.17308,39.95123,0
          -75.17314,39.95123,0
          -75.17319,39.95124,0
          -75.17321,39.95124,0
          -75.17355,39.95128,0
          -75.17365,39.9513,0
          -75.17369,39.95131,0
          -75.17372,39.95131,0
          -75.17374,39.95131,0
          -75.17376,39.95131,0
          -75.17383,39.95132,0
          -75.17404,39.95135,0
          -75.17428,39.95138,0
          -75.17458,39.95141,0
          -75.17547,39.95152,0
          -75.17558,39.95154,0
          -75.17559,39.95146,0
          -75.17565,39.95122,0
          -75.17565,39.9512,0
          -75.17566,39.95118,0
          -75.17566,39.95115,0
          -75.17568,39.95105,0
          -75.17572,39.95089,0
          -75.17572,39.95086,0
          -75.17574,39.95079,0
          -75.17585,39.9508,0
          -75.17589,39.9508,0
          -75.17646,39.95087,0
          -75.1765,39.95088,0
          -75.17654,39.95088,0
          -75.17663,39.95089,0
          -75.17718,39.95096,0
          -75.17732,39.95098,0
          -75.17755,39.951,0
          -75.17779,39.95103,0
          -75.17788,39.95104,0
          -75.17798,39.95105,0
          -75.1785,39.95113,0
          -75.17887,39.95118,0
          -75.17896,39.95119,0
          -75.179,39.95119,0
          -75.17904,39.9512,0
          -75.17943,39.95124,0
          -75.1795,39.95125,0
          -75.17958,39.95126,0
          -75.17983,39.95129,0
          -75.18053,39.95138,0
          -75.18072,39.9514,0
          -75.18086,39.95142,0
          -75.18097,39.95143,0
          -75.1811,39.95145,0
          -75.18126,39.95147,0
          -75.18166,39.95152,0
          -75.18225,39.95159,0
          -75.18251,39.95163,0
          -75.18257,39.95164,0
          -75.18273,39.95166,0
          -75.18279,39.95167,0
          -75.18291,39.95168,0
          -75.18296,39.95169,0
          -75.18306,39.9517,0
          -75.18311,39.95171,0
          -75.18341,39.95175,0
          -75.18358,39.95177,0
          -75.18362,39.95178,0
          -75.18368,39.95178,0
          -75.18379,39.95179,0
          -75.1839,39.9518,0
          -75.18402,39.95182,0
          -75.18409,39.95183,0
          -75.18422,39.95185,0
          -75.18478,39.95192,0
          -75.1853,39.95199,0
          -75.18536,39.952,0
          -75.18538,39.95201,0
          -75.18539,39.95201,0
          -75.18541,39.95201,0
          -75.18542,39.95201,0
          -75.18545,39.95201,0
          -75.18547,39.95202,0
          -75.18548,39.95202,0
          -75.18552,39.95202,0
          -75.18559,39.95203,0
          -75.18567,39.95204,0
          -75.18568,39.95204,0
          -75.18576,39.95205,0
          -75.18587,39.95206,0
          -75.18589,39.95207,0
          -75.18619,39.9521,0
          -75.18637,39.95213,0
          -75.18684,39.95218,0
          -75.18728,39.95224,0
          -75.18759,39.95228,0
          -75.18762,39.95228,0
          -75.18768,39.95229,0
          -75.18769,39.95229,0
          -75.18777,39.9523,0
          -75.18786,39.95231,0
          -75.1879,39.95232,0
          -75.18794,39.95232,0
          -75.18796,39.95232,0
          -75.18801,39.95233,0
          -75.1884,39.95238,0
          -75.18841,39.95238,0
          -75.18847,39.95239,0
          -75.18857,39.9524,0
          -75.1887,39.95242,0
          -75.18871,39.95242,0
          -75.18873,39.95242,0
          -75.18891,39.95244,0
          -75.18911,39.95247,0
          -75.18913,39.95247,0
          -75.18915,39.95247,0
          -75.18953,39.95252,0
          -75.18955,39.95252,0
          -75.18957,39.95253,0
          -75.18984,39.95254,0
          -75.19005,39.95256,0
          -75.19017,39.95257,0
          -75.19023,39.95258,0
          -75.19035,39.95259,0
          -75.19037,39.95259,0
          -75.19041,39.9526,0
          -75.19066,39.95263,0
          -75.19096,39.95267,0
          -75.19123,39.9527,0
          -75.19129,39.95271,0
          -75.1914,39.95273,0
          -75.19169,39.95276,0
          -75.19177,39.95277,0
          -75.1919,39.95279,0
          -75.19211,39.95282,0
          -75.19228,39.95284,0
          -75.19242,39.95286,0
          -75.19259,39.95288,0
          -75.19262,39.95288,0
          -75.19302,39.95293,0
          -75.19325,39.95296,0
          -75.19367,39.95301,0
          -75.19386,39.95304,0
          -75.19415,39.95307,0
          -75.1944,39.9531,0
          -75.19447,39.95311,0
          -75.19467,39.95314,0
          -75.19479,39.95315,0
          -75.1949,39.95317,0
          -75.19492,39.95317,0
          -75.19511,39.95319,0
          -75.19544,39.95324,0
          -75.19592,39.9533,0
          -75.19597,39.9533,0
          -75.196,39.9533,0
        </coordinates>
      </LineString>
    </Placemark>
    <Placemark>
      <name>Liberty Bell, Market Street, Philadelphia, PA</name>
      <styleUrl>#icon-1899-DB4436-nodesc</styleUrl>
      <Point>
        <coordinates>
          -75.1501286,39.9496011,0
        </coordinates>
      </Point>
    </Placemark>
    <Placemark>
      <name>3620 Walnut Street, Philadelphia, PA</name>
      <styleUrl>#icon-1899-DB4436-nodesc</styleUrl>
      <Point>
        <coordinates>
          -75.1959974,39.953305,0
        </coordinates>
      </Point>
    </Placemark>
  </Document>
</kml>
