{
"type": "FeatureCollection",
"name": "h3_hex_grid_r7",
"crs": { "type": "name", "properties": { "name": "urn:ogc:def:crs:OGC:1.3:CRS84" } },
"features": [
{ "type": "Feature", "properties": { "objectid": 1, "grid_id": "872a13400ffffff", "Shape__Area": 8763980.56640625, "Shape__Length": 11028.536457151613 }, "geometry": { "type": "Polygon", "coordinates": [ [ [ -74.995032275003197, 40.058749741491098 ], [ -74.979917813872504, 40.053174418976901 ], [ -74.979184616427403, 40.040960808336301 ], [ -74.993558262479993, 40.034322775232297 ], [ -75.008668414619194, 40.039894903501597 ], [ -75.009409229521594, 40.052108257497501 ], [ -74.995032275003197, 40.058749741491098 ] ] ] } },
{ "type": "Feature", "properties": { "objectid": 2, "grid_id": "872a13402ffffff", "Shape__Area": 8763732.0234375, "Shape__Length": 11028.379801559115 }, "geometry": { "type": "Polygon", "coordinates": [ [ [ -75.024527067708803, 40.057679709245598 ], [ -75.009409229521594, 40.052108257497501 ], [ -75.008668414619194, 40.039894903501597 ], [ -75.023037823590002, 40.0332532645199 ], [ -75.038151348719197, 40.038821525683503 ], [ -75.038899777711094, 40.051034615916699 ], [ -75.024527067708803, 40.057679709245598 ] ] ] } },
{ "type": "Feature", "properties": { "objectid": 3, "grid_id": "872a13403ffffff", "Shape__Area": 8756015.703125, "Shape__Length": 11023.555506448569 }, "geometry": { "type": "Polygon", "coordinates": [ [ [ -75.008668414619194, 40.039894903501597 ], [ -74.993558262479993, 40.034322775232297 ], [ -74.992821828851206, 40.0221121995367 ], [ -75.007187935307599, 40.015474010537901 ], [ -75.022293779593298, 40.021042947783499 ], [ -75.023037823590002, 40.0332532645199 ], [ -75.008668414619194, 40.039894903501597 ] ] ] } },
{ "type": "Feature", "properties": { "objectid": 4, "grid_id": "872a13404ffffff", "Shape__Area": 8771953.09765625, "Shape__Length": 11033.520037232593 }, "geometry": { "type": "Polygon", "coordinates": [ [ [ -74.981385346942702, 40.077607452653901 ], [ -74.966266577012604, 40.072028936084699 ], [ -74.965536622177694, 40.059812291187903 ], [ -74.979917813872504, 40.053174418976901 ], [ -74.995032275003197, 40.058749741491098 ], [ -74.995769853063607, 40.070966128648898 ], [ -74.981385346942702, 40.077607452653901 ] ] ] } },
{ "type": "Feature", "properties": { "objectid": 5, "grid_id": "872a13405ffffff", "Shape__Area": 8764223.0, "Shape__Length": 11028.689350375087 }, "geometry": { "type": "Polygon", "coordinates": [ [ [ -74.965536622177694, 40.059812291187903 ], [ -74.950425547342604, 40.0542331025474 ], [ -74.949699966550398, 40.042019236648997 ], [ -74.9640778437211, 40.035384814152103 ], [ -74.979184616427403, 40.040960808336301 ], [ -74.979917813872504, 40.053174418976901 ], [ -74.965536622177694, 40.059812291187903 ] ] ] } },
{ "type": "Feature", "properties": { "objectid": 6, "grid_id": "872a13406ffffff", "Shape__Area": 8771706.40234375, "Shape__Length": 11033.364582436194 }, "geometry": { "type": "Polygon", "coordinates": [ [ [ -75.010892006961797, 40.0765407731122 ], [ -74.995769853063607, 40.070966128648898 ], [ -74.995032275003197, 40.058749741491098 ], [ -75.009409229521594, 40.052108257497501 ], [ -75.024527067708803, 40.057679709245598 ], [ -75.025272268375303, 40.069895836115101 ], [ -75.010892006961797, 40.0765407731122 ] ] ] } },
{ "type": "Feature", "properties": { "objectid": 7, "grid_id": "872a13410ffffff", "Shape__Area": 8771196.30859375, "Shape__Length": 11033.043291420117 }, "geometry": { "type": "Polygon", "coordinates": [ [ [ -75.069902708861505, 40.074384951854299 ], [ -75.054773809238696, 40.068818057492201 ], [ -75.054020987966894, 40.056602195744802 ], [ -75.068389446073994, 40.049953496658503 ], [ -75.083514016086994, 40.055517203246303 ], [ -75.084274457417806, 40.0677327950727 ], [ -75.069902708861505, 40.074384951854299 ] ] ] } },
{ "type": "Feature", "properties": { "objectid": 8, "grid_id": "872a13411ffffff", "Shape__Area": 8763477.62890625, "Shape__Length": 11028.21949606096 }, "geometry": { "type": "Polygon", "coordinates": [ [ [ -75.054020987966894, 40.056602195744802 ], [ -75.038899777711094, 40.051034615916699 ], [ -75.038151348719197, 40.038821525683503 ], [ -75.052516513368502, 40.032176281021997 ], [ -75.067633400694604, 40.037740672665798 ], [ -75.068389446073994, 40.049953496658503 ], [ -75.054020987966894, 40.056602195744802 ] ] ] } },
{ "type": "Feature", "properties": { "objectid": 9, "grid_id": "872a13412ffffff", "Shape__Area": 8770932.74609375, "Shape__Length": 11032.877363632968 }, "geometry": { "type": "Polygon", "coordinates": [ [ [ -75.099406717325095, 40.073295811416799 ], [ -75.084274457417806, 40.0677327950727 ], [ -75.083514016086994, 40.055517203246303 ], [ -75.097878215015797, 40.048864899735896 ], [ -75.113006139836799, 40.054424730815498 ], [ -75.113774200627603, 40.066640049047798 ], [ -75.099406717325095, 40.073295811416799 ] ] ] } },
{ "type": "Feature", "properties": { "objectid": 10, "grid_id": "872a13413ffffff", "Shape__Area": 8763217.0, "Shape__Length": 11028.055294748234 }, "geometry": { "type": "Polygon", "coordinates": [ [ [ -75.083514016086994, 40.055517203246303 ], [ -75.068389446073994, 40.049953496658503 ], [ -75.067633400694604, 40.037740672665798 ], [ -75.081994313607694, 40.031091827029698 ], [ -75.097114556682001, 40.036652347974602 ], [ -75.097878215015797, 40.048864899735896 ], [ -75.083514016086994, 40.055517203246303 ] ] ] } },
{ "type": "Feature", "properties": { "objectid": 11, "grid_id": "872a13414ffffff", "Shape__Area": 8779184.6015625, "Shape__Length": 11038.034707407982 }, "geometry": { "type": "Polygon", "coordinates": [ [ [ -75.056280619593394, 40.093255588045302 ], [ -75.041147392086302, 40.087685503879896 ], [ -75.040397799830501, 40.075466606155601 ], [ -75.054773809238696, 40.068818057492201 ], [ -75.069902708861505, 40.074384951854299 ], [ -75.070659926777495, 40.086603583060999 ], [ -75.056280619593394, 40.093255588045302 ] ] ] } },
{ "type": "Feature", "properties": { "objectid": 12, "grid_id": "872a13415ffffff", "Shape__Area": 8771455.03515625, "Shape__Length": 11033.20623614834 }, "geometry": { "type": "Polygon", "coordinates": [ [ [ -75.040397799830501, 40.075466606155601 ], [ -75.025272268375303, 40.069895836115101 ], [ -75.024527067708803, 40.057679709245598 ], [ -75.038899777711094, 40.051034615916699 ], [ -75.054020987966894, 40.056602195744802 ], [ -75.054773809238696, 40.068818057492201 ], [ -75.040397799830501, 40.075466606155601 ] ] ] } },
{ "type": "Feature", "properties": { "objectid": 13, "grid_id": "872a13416ffffff", "Shape__Area": 8778922.92578125, "Shape__Length": 11037.870008313579 }, "geometry": { "type": "Polygon", "coordinates": [ [ [ -75.085796521563395, 40.0921697856081 ], [ -75.070659926777495, 40.086603583060999 ], [ -75.069902708861505, 40.074384951854299 ], [ -75.084274457417806, 40.0677327950727 ], [ -75.099406717325095, 40.073295811416799 ], [ -75.100171561859199, 40.085514170214502 ], [ -75.085796521563395, 40.0921697856081 ] ] ] } },
{ "type": "Feature", "properties": { "objectid": 14, "grid_id": "872a13418ffffff", "Shape__Area": 8747805.7734375, "Shape__Length": 11018.417742023654 }, "geometry": { "type": "Polygon", "coordinates": [ [ [ -75.051764859492295, 40.0199662291664 ], [ -75.036655650620503, 40.0144011565949 ], [ -75.035908380923104, 40.002193879982599 ], [ -75.050262717124895, 39.995551941512097 ], [ -75.065367612354095, 40.001113828748501 ], [ -75.066122484842396, 40.013320838168902 ], [ -75.051764859492295, 40.0199662291664 ] ] ] } },
{ "type": "Feature", "properties": { "objectid": 15, "grid_id": "872a1341affffff", "Shape__Area": 8747546.23046875, "Shape__Length": 11018.254087418722 }, "geometry": { "type": "Polygon", "coordinates": [ [ [ -75.081235051904201, 40.018882043759596 ], [ -75.066122484842396, 40.013320838168902 ], [ -75.065367612354095, 40.001113828748501 ], [ -75.079717704543199, 39.994468294157699 ], [ -75.094825949574101, 40.000026316849997 ], [ -75.095588424261607, 40.01223305541 ], [ -75.081235051904201, 40.018882043759596 ] ] ] } },
{ "type": "Feature", "properties": { "objectid": 16, "grid_id": "872a1341bffffff", "Shape__Area": 8739855.015625, "Shape__Length": 11013.441180191565 }, "geometry": { "type": "Polygon", "coordinates": [ [ [ -75.065367612354095, 40.001113828748501 ], [ -75.050262717124895, 39.995551941512097 ], [ -75.049512228085604, 39.983347706829598 ], [ -75.063859036965695, 39.976705626103602 ], [ -75.078959618376999, 39.9822643278168 ], [ -75.079717704543199, 39.994468294157699 ], [ -75.065367612354095, 40.001113828748501 ] ] ] } },
{ "type": "Feature", "properties": { "objectid": 17, "grid_id": "872a1341cffffff", "Shape__Area": 8755765.51171875, "Shape__Length": 11023.397746256504 }, "geometry": { "type": "Polygon", "coordinates": [ [ [ -75.038151348719197, 40.038821525683503 ], [ -75.023037823590002, 40.0332532645199 ], [ -75.022293779593298, 40.021042947783499 ], [ -75.036655650620503, 40.0144011565949 ], [ -75.051764859492295, 40.0199662291664 ], [ -75.052516513368502, 40.032176281021997 ], [ -75.038151348719197, 40.038821525683503 ] ] ] } },
{ "type": "Feature", "properties": { "objectid": 18, "grid_id": "872a1341dffffff", "Shape__Area": 8748059.5390625, "Shape__Length": 11018.577817798034 }, "geometry": { "type": "Polygon", "coordinates": [ [ [ -75.022293779593298, 40.021042947783499 ], [ -75.007187935307599, 40.015474010537901 ], [ -75.006448270402899, 40.003266471562803 ], [ -75.020806844767506, 39.996628131699502 ], [ -75.035908380923104, 40.002193879982599 ], [ -75.036655650620503, 40.0144011565949 ], [ -75.022293779593298, 40.021042947783499 ] ] ] } },
{ "type": "Feature", "properties": { "objectid": 19, "grid_id": "872a1341effffff", "Shape__Area": 8755508.21484375, "Shape__Length": 11023.235570325145 }, "geometry": { "type": "Polygon", "coordinates": [ [ [ -75.067633400694604, 40.037740672665798 ], [ -75.052516513368502, 40.032176281021997 ], [ -75.051764859492295, 40.0199662291664 ], [ -75.066122484842396, 40.013320838168902 ], [ -75.081235051904201, 40.018882043759596 ], [ -75.081994313607694, 40.031091827029698 ], [ -75.067633400694604, 40.037740672665798 ] ] ] } },
{ "type": "Feature", "properties": { "objectid": 20, "grid_id": "872a13422ffffff", "Shape__Area": 8779932.640625, "Shape__Length": 11038.50580145618 }, "geometry": { "type": "Polygon", "coordinates": [ [ [ -74.967727622343602, 40.096468031402303 ], [ -74.952604542482504, 40.090886317557697 ], [ -74.951877835043305, 40.0786666435624 ], [ -74.966266577012604, 40.072028936084699 ], [ -74.981385346942702, 40.077607452653901 ], [ -74.982119683196103, 40.089826872318199 ], [ -74.967727622343602, 40.096468031402303 ] ] ] } },
{ "type": "Feature", "properties": { "objectid": 21, "grid_id": "872a13426ffffff", "Shape__Area": 8787921.33203125, "Shape__Length": 11043.495107630542 }, "geometry": { "type": "Polygon", "coordinates": [ [ [ -74.954059087286097, 40.115331470876399 ], [ -74.938931697784597, 40.109746557696702 ], [ -74.938208242719298, 40.097523855262601 ], [ -74.952604542482504, 40.090886317557697 ], [ -74.967727622343602, 40.096468031402303 ], [ -74.968458711863306, 40.108690481789502 ], [ -74.954059087286097, 40.115331470876399 ] ] ] } },
{ "type": "Feature", "properties": { "objectid": 22, "grid_id": "872a13430ffffff", "Shape__Area": 8787432.94140625, "Shape__Length": 11043.187577568611 }, "geometry": { "type": "Polygon", "coordinates": [ [ [ -75.013119054926804, 40.113204060760197 ], [ -74.997984878911097, 40.107626905165802 ], [ -74.997246153992094, 40.095404711592998 ], [ -75.011633972925196, 40.0887599348046 ], [ -75.026763825309601, 40.094333897119199 ], [ -75.027510183632899, 40.106555829039699 ], [ -75.013119054926804, 40.113204060760197 ] ] ] } },
{ "type": "Feature", "properties": { "objectid": 23, "grid_id": "872a13431ffffff", "Shape__Area": 8779689.76953125, "Shape__Length": 11038.352802409805 }, "geometry": { "type": "Polygon", "coordinates": [ [ [ -74.997246153992094, 40.095404711592998 ], [ -74.982119683196103, 40.089826872318199 ], [ -74.981385346942702, 40.077607452653901 ], [ -74.995769853063607, 40.070966128648898 ], [ -75.010892006961797, 40.0765407731122 ], [ -75.011633972925196, 40.0887599348046 ], [ -74.997246153992094, 40.095404711592998 ] ] ] } },
{ "type": "Feature", "properties": { "objectid": 24, "grid_id": "872a13432ffffff", "Shape__Area": 8787180.14453125, "Shape__Length": 11043.028466349268 }, "geometry": { "type": "Polygon", "coordinates": [ [ [ -75.042647741735394, 40.112129104014201 ], [ -75.027510183632899, 40.106555829039699 ], [ -75.026763825309601, 40.094333897119199 ], [ -75.041147392086302, 40.087685503879896 ], [ -75.056280619593394, 40.093255588045302 ], [ -75.057034610736906, 40.105477254636597 ], [ -75.042647741735394, 40.112129104014201 ] ] ] } },
{ "type": "Feature", "properties": { "objectid": 25, "grid_id": "872a13433ffffff", "Shape__Area": 8779440.09765625, "Shape__Length": 11038.195569098883 }, "geometry": { "type": "Polygon", "coordinates": [ [ [ -75.026763825309601, 40.094333897119199 ], [ -75.011633972925196, 40.0887599348046 ], [ -75.010892006961797, 40.0765407731122 ], [ -75.025272268375303, 40.069895836115101 ], [ -75.040397799830501, 40.075466606155601 ], [ -75.041147392086302, 40.087685503879896 ], [ -75.026763825309601, 40.094333897119199 ] ] ] } },
{ "type": "Feature", "properties": { "objectid": 26, "grid_id": "872a13434ffffff", "Shape__Area": 8795434.2421875, "Shape__Length": 11048.182671698994 }, "geometry": { "type": "Polygon", "coordinates": [ [ [ -74.999463476126294, 40.132077092504097 ], [ -74.984324976801005, 40.1264967404435 ], [ -74.983589499321596, 40.114271516811002 ], [ -74.997984878911097, 40.107626905165802 ], [ -75.013119054926804, 40.113204060760197 ], [ -75.013862174393793, 40.125429025093297 ], [ -74.999463476126294, 40.132077092504097 ] ] ] } },
{ "type": "Feature", "properties": { "objectid": 27, "grid_id": "872a13435ffffff", "Shape__Area": 8787680.0390625, "Shape__Length": 11043.343135698256 }, "geometry": { "type": "Polygon", "coordinates": [ [ [ -74.983589499321596, 40.114271516811002 ], [ -74.968458711863306, 40.108690481789502 ], [ -74.967727622343602, 40.096468031402303 ], [ -74.982119683196103, 40.089826872318199 ], [ -74.997246153992094, 40.095404711592998 ], [ -74.997984878911097, 40.107626905165802 ], [ -74.983589499321596, 40.114271516811002 ] ] ] } },
{ "type": "Feature", "properties": { "objectid": 28, "grid_id": "872a13436ffffff", "Shape__Area": 8795183.96484375, "Shape__Length": 11048.025197431631 }, "geometry": { "type": "Polygon", "coordinates": [ [ [ -75.0290040613136, 40.131005494029402 ], [ -75.013862174393793, 40.125429025093297 ], [ -75.013119054926804, 40.113204060760197 ], [ -75.027510183632899, 40.106555829039699 ], [ -75.042647741735394, 40.112129104014201 ], [ -75.043398499678105, 40.124353805298803 ], [ -75.0290040613136, 40.131005494029402 ] ] ] } },
{ "type": "Feature", "properties": { "objectid": 29, "grid_id": "872a13480ffffff", "Shape__Area": 8762115.3828125, "Shape__Length": 11027.361757109209 }, "geometry": { "type": "Polygon", "coordinates": [ [ [ -75.201476922067798, 40.051102448592601 ], [ -75.186338984688206, 40.045554253596997 ], [ -75.185552491055205, 40.033342542805798 ], [ -75.199896321097398, 40.026679314488703 ], [ -75.215029903845306, 40.032224333770102 ], [ -75.215824009519807, 40.044435755428701 ], [ -75.201476922067798, 40.051102448592601 ] ] ] } },
{ "type": "Feature", "properties": { "objectid": 30, "grid_id": "872a13481ffffff", "Shape__Area": 8754420.34375, "Shape__Length": 11022.550282668017 }, "geometry": { "type": "Polygon", "coordinates": [ [ [ -75.185552491055205, 40.033342542805798 ], [ -75.170422229533202, 40.027793645714802 ], [ -75.169640147701102, 40.015584696970798 ], [ -75.183980720170695, 40.008924931428503 ], [ -75.199106633705696, 40.014470653509399 ], [ -75.199896321097398, 40.026679314488703 ], [ -75.185552491055205, 40.033342542805798 ] ] ] } },
{ "type": "Feature", "properties": { "objectid": 31, "grid_id": "872a13482ffffff", "Shape__Area": 8761824.86328125, "Shape__Length": 11027.178987872323 }, "geometry": { "type": "Polygon", "coordinates": [ [ [ -75.230965267148306, 40.049980067814701 ], [ -75.215824009519807, 40.044435755428701 ], [ -75.215029903845306, 40.032224333770102 ], [ -75.2293694470373, 40.0255575179944 ], [ -75.244506344589794, 40.0310986571901 ], [ -75.2453080587823, 40.0433097848559 ], [ -75.230965267148306, 40.049980067814701 ] ] ] } },
{ "type": "Feature", "properties": { "objectid": 32, "grid_id": "872a13483ffffff", "Shape__Area": 8754133.71484375, "Shape__Length": 11022.36984884931 }, "geometry": { "type": "Polygon", "coordinates": [ [ [ -75.215029903845306, 40.032224333770102 ], [ -75.199896321097398, 40.026679314488703 ], [ -75.199106633705696, 40.014470653509399 ], [ -75.213442925440305, 40.007807300530999 ], [ -75.228572156223706, 40.013349147355797 ], [ -75.2293694470373, 40.0255575179944 ], [ -75.215029903845306, 40.032224333770102 ] ] ] } },
{ "type": "Feature", "properties": { "objectid": 33, "grid_id": "872a13484ffffff", "Shape__Area": 8770104.765625, "Shape__Length": 11032.356334785774 }, "geometry": { "type": "Polygon", "coordinates": [ [ [ -75.187913195669907, 40.069983481589396 ], [ -75.172770905302997, 40.064432109970198 ], [ -75.1719876088017, 40.052217352228297 ], [ -75.186338984688206, 40.045554253596997 ], [ -75.201476922067798, 40.051102448592601 ], [ -75.202267834843596, 40.063316918314101 ], [ -75.187913195669907, 40.069983481589396 ] ] ] } },
{ "type": "Feature", "properties": { "objectid": 34, "grid_id": "872a13485ffffff", "Shape__Area": 8762399.58203125, "Shape__Length": 11027.540641383866 }, "geometry": { "type": "Polygon", "coordinates": [ [ [ -75.1719876088017, 40.052217352228297 ], [ -75.156853001026604, 40.0466652769679 ], [ -75.156074117093297, 40.034453281774503 ], [ -75.170422229533202, 40.027793645714802 ], [ -75.185552491055205, 40.033342542805798 ], [ -75.186338984688206, 40.045554253596997 ], [ -75.1719876088017, 40.052217352228297 ] ] ] } },
{ "type": "Feature", "properties": { "objectid": 35, "grid_id": "872a13486ffffff", "Shape__Area": 8769817.12109375, "Shape__Length": 11032.175394031423 }, "geometry": { "type": "Polygon", "coordinates": [ [ [ -75.217413452334597, 40.0688644059586 ], [ -75.202267834843596, 40.063316918314101 ], [ -75.201476922067798, 40.051102448592601 ], [ -75.215824009519807, 40.044435755428701 ], [ -75.230965267148306, 40.049980067814701 ], [ -75.231763795522198, 40.062194246969298 ], [ -75.217413452334597, 40.0688644059586 ] ] ] } },
{ "type": "Feature", "properties": { "objectid": 36, "grid_id": "872a13488ffffff", "Shape__Area": 8738771.30859375, "Shape__Length": 11012.757923728825 }, "geometry": { "type": "Polygon", "coordinates": [ [ [ -75.183195443809893, 39.996719031993202 ], [ -75.168077195201505, 39.991172613488999 ], [ -75.167296323964393, 39.978969479867501 ], [ -75.181626109197396, 39.972313050703903 ], [ -75.196740019236898, 39.9778562947862 ], [ -75.1975284837945, 39.990059143116198 ], [ -75.183195443809893, 39.996719031993202 ] ] ] } },
{ "type": "Feature", "properties": { "objectid": 37, "grid_id": "872a13489ffffff", "Shape__Area": 8731100.68359375, "Shape__Length": 11007.955524266401 }, "geometry": { "type": "Polygon", "coordinates": [ [ [ -75.167296323964393, 39.978969479867501 ], [ -75.152185733200099, 39.973422367872097 ], [ -75.151409261272505, 39.961222002080298 ], [ -75.165735791556202, 39.954569031682396 ], [ -75.180842048953593, 39.960112968806399 ], [ -75.181626109197396, 39.972313050703903 ], [ -75.167296323964393, 39.978969479867501 ] ] ] } },
{ "type": "Feature", "properties": { "objectid": 38, "grid_id": "872a1348affffff", "Shape__Area": 8738485.80078125, "Shape__Length": 11012.578014245391 }, "geometry": { "type": "Polygon", "coordinates": [ [ [ -75.212650050667094, 39.995601690036303 ], [ -75.1975284837945, 39.990059143116198 ], [ -75.196740019236898, 39.9778562947862 ], [ -75.211065529955604, 39.971196285245902 ], [ -75.226182752786201, 39.976735661387998 ], [ -75.226978808656895, 39.988938218478197 ], [ -75.212650050667094, 39.995601690036303 ] ] ] } },
{ "type": "Feature", "properties": { "objectid": 39, "grid_id": "872a1348bffffff", "Shape__Area": 8730818.19140625, "Shape__Length": 11007.777423430602 }, "geometry": { "type": "Polygon", "coordinates": [ [ [ -75.196740019236898, 39.9778562947862 ], [ -75.181626109197396, 39.972313050703903 ], [ -75.180842048953593, 39.960112968806399 ], [ -75.195164312237907, 39.953456419211903 ], [ -75.210273883439996, 39.9589964920646 ], [ -75.211065529955604, 39.971196285245902 ], [ -75.196740019236898, 39.9778562947862 ] ] ] } },
{ "type": "Feature", "properties": { "objectid": 40, "grid_id": "872a1348cffffff", "Shape__Area": 8746732.203125, "Shape__Length": 11017.741085317466 }, "geometry": { "type": "Polygon", "coordinates": [ [ [ -75.169640147701102, 40.015584696970798 ], [ -75.154517557869994, 40.0100351007871 ], [ -75.153739881925702, 39.997828918361897 ], [ -75.168077195201505, 39.991172613488999 ], [ -75.183195443809893, 39.996719031993202 ], [ -75.183980720170695, 40.008924931428503 ], [ -75.169640147701102, 40.015584696970798 ] ] ] } },
{ "type": "Feature", "properties": { "objectid": 41, "grid_id": "872a1348dffffff", "Shape__Area": 8739051.21875, "Shape__Length": 11012.934324205149 }, "geometry": { "type": "Polygon", "coordinates": [ [ [ -75.153739881925702, 39.997828918361897 ], [ -75.138624958028899, 39.992278629428903 ], [ -75.137851682195802, 39.980075214214999 ], [ -75.152185733200099, 39.973422367872097 ], [ -75.167296323964393, 39.978969479867501 ], [ -75.168077195201505, 39.991172613488999 ], [ -75.153739881925702, 39.997828918361897 ] ] ] } },
{ "type": "Feature", "properties": { "objectid": 42, "grid_id": "872a1348effffff", "Shape__Area": 8746449.16796875, "Shape__Length": 11017.562801642369 }, "geometry": { "type": "Polygon", "coordinates": [ [ [ -75.199106633705696, 40.014470653509399 ], [ -75.183980720170695, 40.008924931428503 ], [ -75.183195443809893, 39.996719031993202 ], [ -75.1975284837945, 39.990059143116198 ], [ -75.212650050667094, 39.995601690036303 ], [ -75.213442925440305, 40.007807300530999 ], [ -75.199106633705696, 40.014470653509399 ] ] ] } },
{ "type": "Feature", "properties": { "objectid": 43, "grid_id": "872a13490ffffff", "Shape__Area": 8769223.32421875, "Shape__Length": 11031.802045009157 }, "geometry": { "type": "Polygon", "coordinates": [ [ [ -75.2764110202138, 40.066603807764103 ], [ -75.261258772136401, 40.061064096117398 ], [ -75.260452628723598, 40.0488502134518 ], [ -75.274791117288402, 40.042176342065297 ], [ -75.289938991644604, 40.047712884571098 ], [ -75.290752749444493, 40.059926467076501 ], [ -75.2764110202138, 40.066603807764103 ] ] ] } },
{ "type": "Feature", "properties": { "objectid": 44, "grid_id": "872a13491ffffff", "Shape__Area": 8761528.51171875, "Shape__Length": 11026.992543237648 }, "geometry": { "type": "Polygon", "coordinates": [ [ [ -75.260452628723598, 40.0488502134518 ], [ -75.2453080587823, 40.0433097848559 ], [ -75.244506344589794, 40.0310986571901 ], [ -75.258841590797701, 40.024428254129297 ], [ -75.2739817937602, 40.029965512030103 ], [ -75.274791117288402, 40.042176342065297 ], [ -75.260452628723598, 40.0488502134518 ] ] ] } },
{ "type": "Feature", "properties": { "objectid": 45, "grid_id": "872a13494ffffff", "Shape__Area": 8777228.2265625, "Shape__Length": 11036.804309915407 }, "geometry": { "type": "Polygon", "coordinates": [ [ [ -75.262872312263099, 40.085497664715398 ], [ -75.247715692169805, 40.079954780764503 ], [ -75.2469127322791, 40.067737847204199 ], [ -75.261258772136401, 40.061064096117398 ], [ -75.2764110202138, 40.066603807764103 ], [ -75.277221598737597, 40.078820442273802 ], [ -75.262872312263099, 40.085497664715398 ] ] ] } },
{ "type": "Feature", "properties": { "objectid": 46, "grid_id": "872a13495ffffff", "Shape__Area": 8769523.15234375, "Shape__Length": 11031.990544317685 }, "geometry": { "type": "Polygon", "coordinates": [ [ [ -75.2469127322791, 40.067737847204199 ], [ -75.231763795522198, 40.062194246969298 ], [ -75.230965267148306, 40.049980067814701 ], [ -75.2453080587823, 40.0433097848559 ], [ -75.260452628723598, 40.0488502134518 ], [ -75.261258772136401, 40.061064096117398 ], [ -75.2469127322791, 40.067737847204199 ] ] ] } },
{ "type": "Feature", "properties": { "objectid": 47, "grid_id": "872a13499ffffff", "Shape__Area": 8738194.16796875, "Shape__Length": 11012.39428057409 }, "geometry": { "type": "Polygon", "coordinates": [ [ [ -75.2421036858387, 39.994476893757003 ], [ -75.226978808656895, 39.988938218478197 ], [ -75.226182752786201, 39.976735661387998 ], [ -75.240503981716401, 39.970072073953702 ], [ -75.255624508010698, 39.975607579818899 ], [ -75.256428154555806, 39.987809842004602 ], [ -75.2421036858387, 39.994476893757003 ] ] ] } },
{ "type": "Feature", "properties": { "objectid": 48, "grid_id": "872a1349bffffff", "Shape__Area": 8737896.22265625, "Shape__Length": 11012.206615968224 }, "geometry": { "type": "Polygon", "coordinates": [ [ [ -75.271556334214907, 39.993344642214701 ], [ -75.256428154555806, 39.987809842004602 ], [ -75.255624508010698, 39.975607579818899 ], [ -75.269941447883696, 39.968940416979002 ], [ -75.285065268269406, 39.974472051363001 ], [ -75.285876506386799, 39.986674012760503 ], [ -75.271556334214907, 39.993344642214701 ] ] ] } },
{ "type": "Feature", "properties": { "objectid": 49, "grid_id": "872a1349dffffff", "Shape__Area": 8746159.8828125, "Shape__Length": 11017.380618553289 }, "geometry": { "type": "Polygon", "coordinates": [ [ [ -75.228572156223706, 40.013349147355797 ], [ -75.213442925440305, 40.007807300530999 ], [ -75.212650050667094, 39.995601690036303 ], [ -75.226978808656895, 39.988938218478197 ], [ -75.2421036858387, 39.994476893757003 ], [ -75.242904158430804, 40.006682210518797 ], [ -75.228572156223706, 40.013349147355797 ] ] ] } },
{ "type": "Feature", "properties": { "objectid": 50, "grid_id": "872a134a0ffffff", "Shape__Area": 8778382.0703125, "Shape__Length": 11037.529742635452 }, "geometry": { "type": "Polygon", "coordinates": [ [ [ -75.144825584527297, 40.089975705582603 ], [ -75.129682281971697, 40.084417268845002 ], [ -75.128909812889106, 40.072199186164902 ], [ -75.143273022147397, 40.065539820642698 ], [ -75.158411977408605, 40.071095076171503 ], [ -75.1591920704697, 40.083312877934503 ], [ -75.144825584527297, 40.089975705582603 ] ] ] } },
{ "type": "Feature", "properties": { "objectid": 51, "grid_id": "872a134a1ffffff", "Shape__Area": 8770662.96484375, "Shape__Length": 11032.70755019402 }, "geometry": { "type": "Polygon", "coordinates": [ [ [ -75.128909812889106, 40.072199186164902 ], [ -75.113774200627603, 40.066640049047798 ], [ -75.113006139836799, 40.054424730815498 ], [ -75.127366072220596, 40.047768826470602 ], [ -75.142497342460899, 40.053324780802797 ], [ -75.143273022147397, 40.065539820642698 ], [ -75.128909812889106, 40.072199186164902 ] ] ] } },
{ "type": "Feature", "properties": { "objectid": 52, "grid_id": "872a134a2ffffff", "Shape__Area": 8778102.69921875, "Shape__Length": 11037.354034331413 }, "geometry": { "type": "Polygon", "coordinates": [ [ [ -75.174338715020198, 40.088867429401702 ], [ -75.1591920704697, 40.083312877934503 ], [ -75.158411977408605, 40.071095076171503 ], [ -75.172770905302997, 40.064432109970198 ], [ -75.187913195669907, 40.069983481589396 ], [ -75.188700912087199, 40.082200998761202 ], [ -75.174338715020198, 40.088867429401702 ] ] ] } },
{ "type": "Feature", "properties": { "objectid": 53, "grid_id": "872a134a3ffffff", "Shape__Area": 8770387.21875, "Shape__Length": 11032.534020565239 }, "geometry": { "type": "Polygon", "coordinates": [ [ [ -75.158411977408605, 40.071095076171503 ], [ -75.143273022147397, 40.065539820642698 ], [ -75.142497342460899, 40.053324780802797 ], [ -75.156853001026604, 40.0466652769679 ], [ -75.1719876088017, 40.052217352228297 ], [ -75.172770905302997, 40.064432109970198 ], [ -75.158411977408605, 40.071095076171503 ] ] ] } },
{ "type": "Feature", "properties": { "objectid": 54, "grid_id": "872a134a8ffffff", "Shape__Area": 8754976.2734375, "Shape__Length": 11022.900388706397 }, "geometry": { "type": "Polygon", "coordinates": [ [ [ -75.126594801535006, 40.035556550611702 ], [ -75.111471210628395, 40.029999901573603 ], [ -75.110704340142604, 40.017790392775602 ], [ -75.125053453660996, 40.011137809570101 ], [ -75.140172710451793, 40.016691277506503 ], [ -75.140947187649701, 40.028900508128601 ], [ -75.126594801535006, 40.035556550611702 ] ] ] } },
{ "type": "Feature", "properties": { "objectid": 55, "grid_id": "872a134a9ffffff", "Shape__Area": 8747281.08984375, "Shape__Length": 11018.086964548496 }, "geometry": { "type": "Polygon", "coordinates": [ [ [ -75.110704340142604, 40.017790392775602 ], [ -75.095588424261607, 40.01223305541 ], [ -75.094825949574101, 40.000026316849997 ], [ -75.1091717903996, 39.993377189721897 ], [ -75.124283378793905, 39.998931346697702 ], [ -75.125053453660996, 40.011137809570101 ], [ -75.110704340142604, 40.017790392775602 ] ] ] } },
{ "type": "Feature", "properties": { "objectid": 56, "grid_id": "872a134aaffffff", "Shape__Area": 8754701.6015625, "Shape__Length": 11022.727384261243 }, "geometry": { "type": "Polygon", "coordinates": [ [ [ -75.156074117093297, 40.034453281774503 ], [ -75.140947187649701, 40.028900508128601 ], [ -75.140172710451793, 40.016691277506503 ], [ -75.154517557869994, 40.0100351007871 ], [ -75.169640147701102, 40.015584696970798 ], [ -75.170422229533202, 40.027793645714802 ], [ -75.156074117093297, 40.034453281774503 ] ] ] } },
{ "type": "Feature", "properties": { "objectid": 57, "grid_id": "872a134abffffff", "Shape__Area": 8747009.71484375, "Shape__Length": 11017.915924248722 }, "geometry": { "type": "Polygon", "coordinates": [ [ [ -75.140172710451793, 40.016691277506503 ], [ -75.125053453660996, 40.011137809570101 ], [ -75.124283378793905, 39.998931346697702 ], [ -75.138624958028899, 39.992278629428903 ], [ -75.153739881925702, 39.997828918361897 ], [ -75.154517557869994, 40.0100351007871 ], [ -75.140172710451793, 40.016691277506503 ] ] ] } },
{ "type": "Feature", "properties": { "objectid": 58, "grid_id": "872a134acffffff", "Shape__Area": 8762950.90625, "Shape__Length": 11027.887716871257 }, "geometry": { "type": "Polygon", "coordinates": [ [ [ -75.113006139836799, 40.054424730815498 ], [ -75.097878215015797, 40.048864899735896 ], [ -75.097114556682001, 40.036652347974602 ], [ -75.111471210628395, 40.029999901573603 ], [ -75.126594801535006, 40.035556550611702 ], [ -75.127366072220596, 40.047768826470602 ], [ -75.113006139836799, 40.054424730815498 ] ] ] } },
{ "type": "Feature", "properties": { "objectid": 59, "grid_id": "872a134adffffff", "Shape__Area": 8755245.33984375, "Shape__Length": 11023.069902904244 }, "geometry": { "type": "Polygon", "coordinates": [ [ [ -75.097114556682001, 40.036652347974602 ], [ -75.081994313607694, 40.031091827029698 ], [ -75.081235051904201, 40.018882043759596 ], [ -75.095588424261607, 40.01223305541 ], [ -75.110704340142604, 40.017790392775602 ], [ -75.111471210628395, 40.029999901573603 ], [ -75.097114556682001, 40.036652347974602 ] ] ] } },
{ "type": "Feature", "properties": { "objectid": 60, "grid_id": "872a134aeffffff", "Shape__Area": 8762678.1640625, "Shape__Length": 11027.715987038831 }, "geometry": { "type": "Polygon", "coordinates": [ [ [ -75.142497342460899, 40.053324780802797 ], [ -75.127366072220596, 40.047768826470602 ], [ -75.126594801535006, 40.035556550611702 ], [ -75.140947187649701, 40.028900508128601 ], [ -75.156074117093297, 40.034453281774503 ], [ -75.156853001026604, 40.0466652769679 ], [ -75.142497342460899, 40.053324780802797 ] ] ] } },
{ "type": "Feature", "properties": { "objectid": 61, "grid_id": "872a134b0ffffff", "Shape__Area": 8785535.98828125, "Shape__Length": 11041.994650885172 }, "geometry": { "type": "Polygon", "coordinates": [ [ [ -75.219800704138805, 40.105521886960602 ], [ -75.204643032955204, 40.099971936085502 ], [ -75.203850890730294, 40.087751662638702 ], [ -75.218208791561906, 40.081081632614797 ], [ -75.233362094884598, 40.086628407682198 ], [ -75.234161864992799, 40.098848388084598 ], [ -75.219800704138805, 40.105521886960602 ] ] ] } },
{ "type": "Feature", "properties": { "objectid": 62, "grid_id": "872a134b1ffffff", "Shape__Area": 8777817.1171875, "Shape__Length": 11037.174472532572 }, "geometry": { "type": "Polygon", "coordinates": [ [ [ -75.203850890730294, 40.087751662638702 ], [ -75.188700912087199, 40.082200998761202 ], [ -75.187913195669907, 40.069983481589396 ], [ -75.202267834843596, 40.063316918314101 ], [ -75.217413452334597, 40.0688644059586 ], [ -75.218208791561906, 40.081081632614797 ], [ -75.203850890730294, 40.087751662638702 ] ] ] } },
{ "type": "Feature", "properties": { "objectid": 63, "grid_id": "872a134b3ffffff", "Shape__Area": 8777525.5703125, "Shape__Length": 11036.991193038382 }, "geometry": { "type": "Polygon", "coordinates": [ [ [ -75.233362094884598, 40.086628407682198 ], [ -75.218208791561906, 40.081081632614797 ], [ -75.217413452334597, 40.0688644059586 ], [ -75.231763795522198, 40.062194246969298 ], [ -75.2469127322791, 40.067737847204199 ], [ -75.247715692169805, 40.079954780764503 ], [ -75.233362094884598, 40.086628407682198 ] ] ] } },
{ "type": "Feature", "properties": { "objectid": 64, "grid_id": "872a134c2ffffff", "Shape__Area": 8708128.3671875, "Shape__Length": 10993.5609585814 }, "geometry": { "type": "Polygon", "coordinates": [ [ [ -75.119671266961603, 39.925733304176703 ], [ -75.104583624345693, 39.920184142048001 ], [ -75.103820310894605, 39.907992098460198 ], [ -75.118137066682493, 39.901349491716097 ], [ -75.133220395876606, 39.9068954777375 ], [ -75.133991282516803, 39.919087244989399 ], [ -75.119671266961603, 39.925733304176703 ] ] ] } },
{ "type": "Feature", "properties": { "objectid": 65, "grid_id": "872a134d0ffffff", "Shape__Area": 8715504.1015625, "Shape__Length": 10998.183408554569 }, "geometry": { "type": "Polygon", "coordinates": [ [ [ -75.164956129816801, 39.942371718231499 ], [ -75.149857519325394, 39.936827094401998 ], [ -75.149082248784396, 39.924632552500903 ], [ -75.1633980123013, 39.917982917607603 ], [ -75.178492297264796, 39.923524369375798 ], [ -75.179275144003398, 39.9357186276033 ], [ -75.164956129816801, 39.942371718231499 ] ] ] } },
{ "type": "Feature", "properties": { "objectid": 66, "grid_id": "872a134d1ffffff", "Shape__Area": 8707856.703125, "Shape__Length": 10993.389389366093 }, "geometry": { "type": "Polygon", "coordinates": [ [ [ -75.149082248784396, 39.924632552500903 ], [ -75.133991282516803, 39.919087244989399 ], [ -75.133220395876606, 39.9068954777375 ], [ -75.147532907072105, 39.900249297597497 ], [ -75.162619555958898, 39.905791431543399 ], [ -75.1633980123013, 39.917982917607603 ], [ -75.149082248784396, 39.924632552500903 ] ] ] } },
{ "type": "Feature", "properties": { "objectid": 67, "grid_id": "872a134d2ffffff", "Shape__Area": 8715222.359375, "Shape__Length": 10998.005615668155 }, "geometry": { "type": "Polygon", "coordinates": [ [ [ -75.194377069264903, 39.9412593919551 ], [ -75.179275144003398, 39.9357186276033 ], [ -75.178492297264796, 39.923524369375798 ], [ -75.192803799931497, 39.916871163464698 ], [ -75.207901394291099, 39.922408757144403 ], [ -75.208691815143496, 39.934602728004897 ], [ -75.194377069264903, 39.9412593919551 ] ] ] } },
{ "type": "Feature", "properties": { "objectid": 68, "grid_id": "872a134d3ffffff", "Shape__Area": 8707578.9921875, "Shape__Length": 10993.214050257062 }, "geometry": { "type": "Polygon", "coordinates": [ [ [ -75.178492297264796, 39.923524369375798 ], [ -75.1633980123013, 39.917982917607603 ], [ -75.162619555958898, 39.905791431543399 ], [ -75.176927815257301, 39.899141681599197 ], [ -75.192017774503199, 39.9046799622474 ], [ -75.192803799931497, 39.916871163464698 ], [ -75.178492297264796, 39.923524369375798 ] ] ] } },
{ "type": "Feature", "properties": { "objectid": 69, "grid_id": "872a134d4ffffff", "Shape__Area": 8723436.27734375, "Shape__Length": 11003.155010677663 }, "geometry": { "type": "Polygon", "coordinates": [ [ [ -75.151409261272505, 39.961222002080298 ], [ -75.136306325575902, 39.955674201872803 ], [ -75.135534245602798, 39.943476608140799 ], [ -75.149857519325394, 39.936827094401998 ], [ -75.164956129816801, 39.942371718231499 ], [ -75.165735791556202, 39.954569031682396 ], [ -75.151409261272505, 39.961222002080298 ] ] ] } },
{ "type": "Feature", "properties": { "objectid": 70, "grid_id": "872a134d5ffffff", "Shape__Area": 8715778.8984375, "Shape__Length": 10998.356846119794 }, "geometry": { "type": "Polygon", "coordinates": [ [ [ -75.135534245602798, 39.943476608140799 ], [ -75.1204389592734, 39.937928124931403 ], [ -75.119671266961603, 39.925733304176703 ], [ -75.133991282516803, 39.919087244989399 ], [ -75.149082248784396, 39.924632552500903 ], [ -75.149857519325394, 39.936827094401998 ], [ -75.135534245602798, 39.943476608140799 ] ] ] } },
{ "type": "Feature", "properties": { "objectid": 71, "grid_id": "872a134d6ffffff", "Shape__Area": 8723157.77734375, "Shape__Length": 11002.979310614232 }, "geometry": { "type": "Polygon", "coordinates": [ [ [ -75.180842048953593, 39.960112968806399 ], [ -75.165735791556202, 39.954569031682396 ], [ -75.164956129816801, 39.942371718231499 ], [ -75.179275144003398, 39.9357186276033 ], [ -75.194377069264903, 39.9412593919551 ], [ -75.195164312237907, 39.953456419211903 ], [ -75.180842048953593, 39.960112968806399 ] ] ] } },
{ "type": "Feature", "properties": { "objectid": 72, "grid_id": "872a134d8ffffff", "Shape__Area": 8692312.328125, "Shape__Length": 10983.637433026543 }, "geometry": { "type": "Polygon", "coordinates": [ [ [ -75.146758835338005, 39.888060585702199 ], [ -75.131679818351401, 39.882517773689798 ], [ -75.130910123941703, 39.870331839057798 ], [ -75.145211888708701, 39.863688995787399 ], [ -75.160286594705198, 39.869228635890103 ], [ -75.161063848194999, 39.881414289585898 ], [ -75.146758835338005, 39.888060585702199 ] ] ] } },
{ "type": "Feature", "properties": { "objectid": 73, "grid_id": "872a134daffffff", "Shape__Area": 8692035.53515625, "Shape__Length": 10983.462517447228 }, "geometry": { "type": "Polygon", "coordinates": [ [ [ -75.176146178001702, 39.886953251999103 ], [ -75.161063848194999, 39.881414289585898 ], [ -75.160286594705198, 39.869228635890103 ], [ -75.174584113780497, 39.862582228737999 ], [ -75.189662127193401, 39.868118021750902 ], [ -75.190446937688804, 39.880303390821503 ], [ -75.176146178001702, 39.886953251999103 ] ] ] } },
{ "type": "Feature", "properties": { "objectid": 74, "grid_id": "872a134dcffffff", "Shape__Area": 8700216.4609375, "Shape__Length": 10988.597830888652 }, "geometry": { "type": "Polygon", "coordinates": [ [ [ -75.133220395876606, 39.9068954777375 ], [ -75.118137066682493, 39.901349491716097 ], [ -75.117370561080506, 39.8891605011843 ], [ -75.131679818351401, 39.882517773689798 ], [ -75.146758835338005, 39.888060585702199 ], [ -75.147532907072105, 39.900249297597497 ], [ -75.133220395876606, 39.9068954777375 ] ] ] } },
{ "type": "Feature", "properties": { "objectid": 75, "grid_id": "872a134deffffff", "Shape__Area": 8699942.62890625, "Shape__Length": 10988.424854526036 }, "geometry": { "type": "Polygon", "coordinates": [ [ [ -75.162619555958898, 39.905791431543399 ], [ -75.147532907072105, 39.900249297597497 ], [ -75.146758835338005, 39.888060585702199 ], [ -75.161063848194999, 39.881414289585898 ], [ -75.176146178001702, 39.886953251999103 ], [ -75.176927815257301, 39.899141681599197 ], [ -75.162619555958898, 39.905791431543399 ] ] ] } },
{ "type": "Feature", "properties": { "objectid": 76, "grid_id": "872a134f0ffffff", "Shape__Area": 8731647.25390625, "Shape__Length": 11008.300251660125 }, "geometry": { "type": "Polygon", "coordinates": [ [ [ -75.108406107657004, 39.981173496515197 ], [ -75.093302181898196, 39.975618656840098 ], [ -75.092540888354307, 39.963417736504397 ], [ -75.106875930842705, 39.956771930787497 ], [ -75.121975536989297, 39.962323591759898 ], [ -75.122744420028496, 39.974524236656002 ], [ -75.108406107657004, 39.981173496515197 ] ] ] } },
{ "type": "Feature", "properties": { "objectid": 77, "grid_id": "872a134f2ffffff", "Shape__Area": 8731376.68359375, "Shape__Length": 11008.129551652755 }, "geometry": { "type": "Polygon", "coordinates": [ [ [ -75.137851682195802, 39.980075214214999 ], [ -75.122744420028496, 39.974524236656002 ], [ -75.121975536989297, 39.962323591759898 ], [ -75.136306325575902, 39.955674201872803 ], [ -75.151409261272505, 39.961222002080298 ], [ -75.152185733200099, 39.973422367872097 ], [ -75.137851682195802, 39.980075214214999 ] ] ] } },
{ "type": "Feature", "properties": { "objectid": 78, "grid_id": "872a134f3ffffff", "Shape__Area": 8723708.6796875, "Shape__Length": 11003.326869031802 }, "geometry": { "type": "Polygon", "coordinates": [ [ [ -75.121975536989297, 39.962323591759898 ], [ -75.106875930842705, 39.956771930787497 ], [ -75.1061114347509, 39.944574059345499 ], [ -75.1204389592734, 39.937928124931403 ], [ -75.135534245602798, 39.943476608140799 ], [ -75.136306325575902, 39.955674201872803 ], [ -75.121975536989297, 39.962323591759898 ] ] ] } },
{ "type": "Feature", "properties": { "objectid": 79, "grid_id": "872a134f4ffffff", "Shape__Area": 8739592.8203125, "Shape__Length": 11013.275809486175 }, "geometry": { "type": "Polygon", "coordinates": [ [ [ -75.094825949574101, 40.000026316849997 ], [ -75.079717704543199, 39.994468294157699 ], [ -75.078959618376999, 39.9822643278168 ], [ -75.093302181898196, 39.975618656840098 ], [ -75.108406107657004, 39.981173496515197 ], [ -75.1091717903996, 39.993377189721897 ], [ -75.094825949574101, 40.000026316849997 ] ] ] } },
{ "type": "Feature", "properties": { "objectid": 80, "grid_id": "872a134f5ffffff", "Shape__Area": 8731911.21875, "Shape__Length": 11008.466805371821 }, "geometry": { "type": "Polygon", "coordinates": [ [ [ -75.078959618376999, 39.9822643278168 ], [ -75.063859036965695, 39.976705626103602 ], [ -75.063105333471597, 39.964504435118599 ], [ -75.077444621066206, 39.957862217125601 ], [ -75.092540888354307, 39.963417736504397 ], [ -75.093302181898196, 39.975618656840098 ], [ -75.078959618376999, 39.9822643278168 ] ] ] } },
{ "type": "Feature", "properties": { "objectid": 81, "grid_id": "872a134f6ffffff", "Shape__Area": 8739325.0, "Shape__Length": 11013.106916593104 }, "geometry": { "type": "Polygon", "coordinates": [ [ [ -75.124283378793905, 39.998931346697702 ], [ -75.1091717903996, 39.993377189721897 ], [ -75.108406107657004, 39.981173496515197 ], [ -75.122744420028496, 39.974524236656002 ], [ -75.137851682195802, 39.980075214214999 ], [ -75.138624958028899, 39.992278629428903 ], [ -75.124283378793905, 39.998931346697702 ] ] ] } },
{ "type": "Feature", "properties": { "objectid": 82, "grid_id": "872a1351affffff", "Shape__Area": 8803442.9453125, "Shape__Length": 11053.180184474673 }, "geometry": { "type": "Polygon", "coordinates": [ [ [ -74.985797077940404, 40.150952984428599 ], [ -74.970654255631999, 40.1453694327165 ], [ -74.969922028972306, 40.133141183027803 ], [ -74.984324976801005, 40.1264967404435 ], [ -74.999463476126294, 40.132077092504097 ], [ -75.000203350429999, 40.144305085177301 ], [ -74.985797077940404, 40.150952984428599 ] ] ] } },
{ "type": "Feature", "properties": { "objectid": 83, "grid_id": "872a1351bffffff", "Shape__Area": 8795678.578125, "Shape__Length": 11048.336452804533 }, "geometry": { "type": "Polygon", "coordinates": [ [ [ -74.969922028972306, 40.133141183027803 ], [ -74.954786925229698, 40.127556947949202 ], [ -74.954059087286097, 40.115331470876399 ], [ -74.968458711863306, 40.108690481789502 ], [ -74.983589499321596, 40.114271516811002 ], [ -74.984324976801005, 40.1264967404435 ], [ -74.969922028972306, 40.133141183027803 ] ] ] } },
{ "type": "Feature", "properties": { "objectid": 84, "grid_id": "872a13589ffffff", "Shape__Area": 8786921.42578125, "Shape__Length": 11042.865679101789 }, "geometry": { "type": "Polygon", "coordinates": [ [ [ -75.072175541522199, 40.111046647734703 ], [ -75.057034610736906, 40.105477254636597 ], [ -75.056280619593394, 40.093255588045302 ], [ -75.070659926777495, 40.086603583060999 ], [ -75.085796521563395, 40.0921697856081 ], [ -75.086558144934997, 40.1043911831933 ], [ -75.072175541522199, 40.111046647734703 ] ] ] } },
{ "type": "Feature", "properties": { "objectid": 85, "grid_id": "872a1358dffffff", "Shape__Area": 8794927.32421875, "Shape__Length": 11047.86375184164 }, "geometry": { "type": "Polygon", "coordinates": [ [ [ -75.0585437662928, 40.129926388760097 ], [ -75.043398499678105, 40.124353805298803 ], [ -75.042647741735394, 40.112129104014201 ], [ -75.057034610736906, 40.105477254636597 ], [ -75.072175541522199, 40.111046647734703 ], [ -75.072933937440794, 40.123271080042002 ], [ -75.0585437662928, 40.129926388760097 ] ] ] } },
{ "type": "Feature", "properties": { "objectid": 86, "grid_id": "872a135a9ffffff", "Shape__Area": 8803195.1796875, "Shape__Length": 11053.024346636254 }, "geometry": { "type": "Polygon", "coordinates": [ [ [ -75.015349567361, 40.149884750171303 ], [ -75.000203350429999, 40.144305085177301 ], [ -74.999463476126294, 40.132077092504097 ], [ -75.013862174393793, 40.125429025093297 ], [ -75.0290040613136, 40.131005494029402 ], [ -75.0297515797523, 40.143233225936697 ], [ -75.015349567361, 40.149884750171303 ] ] ] } },
{ "type": "Feature", "properties": { "objectid": 87, "grid_id": "872aacb01ffffff", "Shape__Area": 8698786.8125, "Shape__Length": 10987.695070018151 }, "geometry": { "type": "Polygon", "coordinates": [ [ [ -75.280206625526304, 39.901301020725398 ], [ -75.265106780878796, 39.895774310388099 ], [ -75.264302457860694, 39.883586756532999 ], [ -75.278590416126505, 39.8769262128219 ], [ -75.293685915721497, 39.882449761600597 ], [ -75.2944978003963, 39.894637015122903 ], [ -75.280206625526304, 39.901301020725398 ] ] ] } },
{ "type": "Feature", "properties": { "objectid": 88, "grid_id": "872aacb05ffffff", "Shape__Area": 8706710.65625, "Shape__Length": 10992.666039891048 }, "geometry": { "type": "Polygon", "coordinates": [ [ [ -75.266716675043597, 39.920155246090701 ], [ -75.251612487008302, 39.914625372156202 ], [ -75.250811323703701, 39.9024347549528 ], [ -75.265106780878796, 39.895774310388099 ], [ -75.280206625526304, 39.901301020725398 ], [ -75.281015354679994, 39.9134913386984 ], [ -75.266716675043597, 39.920155246090701 ] ] ] } },
{ "type": "Feature", "properties": { "objectid": 89, "grid_id": "872aacb0cffffff", "Shape__Area": 8691170.765625, "Shape__Length": 10982.916258004871 }, "geometry": { "type": "Polygon", "coordinates": [ [ [ -75.264302457860694, 39.883586756532999 ], [ -75.249210236763702, 39.878059351133899 ], [ -75.248410312546895, 39.865874565623699 ], [ -75.262695052567906, 39.859217481703098 ], [ -75.277782935253697, 39.864741725122101 ], [ -75.278590416126505, 39.8769262128219 ], [ -75.264302457860694, 39.883586756532999 ] ] ] } },
{ "type": "Feature", "properties": { "objectid": 90, "grid_id": "872aacb20ffffff", "Shape__Area": 8722582.55078125, "Shape__Length": 11002.616564904318 }, "geometry": { "type": "Polygon", "coordinates": [ [ [ -75.239704749520101, 39.957872574277502 ], [ -75.224591872411196, 39.952336366877702 ], [ -75.223797048790203, 39.940139630602602 ], [ -75.238107520644405, 39.933479393592897 ], [ -75.253216053321793, 39.939012433225599 ], [ -75.254018456954597, 39.951208874857102 ], [ -75.239704749520101, 39.957872574277502 ] ] ] } },
{ "type": "Feature", "properties": { "objectid": 91, "grid_id": "872aacb21ffffff", "Shape__Area": 8714935.78125, "Shape__Length": 10997.824795746215 }, "geometry": { "type": "Polygon", "coordinates": [ [ [ -75.223797048790203, 39.940139630602602 ], [ -75.208691815143496, 39.934602728004897 ], [ -75.207901394291099, 39.922408757144403 ], [ -75.222208630394903, 39.915751980474397 ], [ -75.237309524763106, 39.921285715978001 ], [ -75.238107520644405, 39.933479393592897 ], [ -75.223797048790203, 39.940139630602602 ] ] ] } },
{ "type": "Feature", "properties": { "objectid": 92, "grid_id": "872aacb23ffffff", "Shape__Area": 8714642.93359375, "Shape__Length": 10997.640085067116 }, "geometry": { "type": "Polygon", "coordinates": [ [ [ -75.253216053321793, 39.939012433225599 ], [ -75.238107520644405, 39.933479393592897 ], [ -75.237309524763106, 39.921285715978001 ], [ -75.251612487008302, 39.914625372156202 ], [ -75.266716675043597, 39.920155246090701 ], [ -75.267522243811499, 39.932348627892999 ], [ -75.253216053321793, 39.939012433225599 ] ] ] } },
{ "type": "Feature", "properties": { "objectid": 93, "grid_id": "872aacb24ffffff", "Shape__Area": 8730530.0, "Shape__Length": 11007.595776074455 }, "geometry": { "type": "Polygon", "coordinates": [ [ [ -75.226182752786201, 39.976735661387998 ], [ -75.211065529955604, 39.971196285245902 ], [ -75.210273883439996, 39.9589964920646 ], [ -75.224591872411196, 39.952336366877702 ], [ -75.239704749520101, 39.957872574277502 ], [ -75.240503981716401, 39.970072073953702 ], [ -75.226182752786201, 39.976735661387998 ] ] ] } },
{ "type": "Feature", "properties": { "objectid": 94, "grid_id": "872aacb25ffffff", "Shape__Area": 8722872.75, "Shape__Length": 11002.799558027902 }, "geometry": { "type": "Polygon", "coordinates": [ [ [ -75.210273883439996, 39.9589964920646 ], [ -75.195164312237907, 39.953456419211903 ], [ -75.194377069264903, 39.9412593919551 ], [ -75.208691815143496, 39.934602728004897 ], [ -75.223797048790203, 39.940139630602602 ], [ -75.224591872411196, 39.952336366877702 ], [ -75.210273883439996, 39.9589964920646 ] ] ] } },
{ "type": "Feature", "properties": { "objectid": 95, "grid_id": "872aacb26ffffff", "Shape__Area": 8730235.83984375, "Shape__Length": 11007.410386963184 }, "geometry": { "type": "Polygon", "coordinates": [ [ [ -75.255624508010698, 39.975607579818899 ], [ -75.240503981716401, 39.970072073953702 ], [ -75.239704749520101, 39.957872574277502 ], [ -75.254018456954597, 39.951208874857102 ], [ -75.269134630689905, 39.956741213345801 ], [ -75.269941447883696, 39.968940416979002 ], [ -75.255624508010698, 39.975607579818899 ] ] ] } },
{ "type": "Feature", "properties": { "objectid": 96, "grid_id": "872aacb28ffffff", "Shape__Area": 8699376.51171875, "Shape__Length": 10988.06732824332 }, "geometry": { "type": "Polygon", "coordinates": [ [ [ -75.221415034960003, 39.903561069981102 ], [ -75.206321773230201, 39.898026643813303 ], [ -75.205532572448604, 39.885838502449801 ], [ -75.219829073222499, 39.879185077592403 ], [ -75.234918005066106, 39.884716337255703 ], [ -75.235714767284307, 39.896904186693199 ], [ -75.221415034960003, 39.903561069981102 ] ] ] } },
{ "type": "Feature", "properties": { "objectid": 97, "grid_id": "872aacb29ffffff", "Shape__Area": 8691753.2890625, "Shape__Length": 10983.284193103147 }, "geometry": { "type": "Polygon", "coordinates": [ [ [ -75.205532572448604, 39.885838502449801 ], [ -75.190446937688804, 39.880303390821503 ], [ -75.189662127193401, 39.868118021750902 ], [ -75.203955393333203, 39.861468053187302 ], [ -75.219036704841102, 39.866999997895398 ], [ -75.219829073222499, 39.879185077592403 ], [ -75.205532572448604, 39.885838502449801 ] ] ] } },
{ "type": "Feature", "properties": { "objectid": 98, "grid_id": "872aacb2affffff", "Shape__Area": 8699084.265625, "Shape__Length": 10987.882829505645 }, "geometry": { "type": "Polygon", "coordinates": [ [ [ -75.250811323703701, 39.9024347549528 ], [ -75.235714767284307, 39.896904186693199 ], [ -75.234918005066106, 39.884716337255703 ], [ -75.249210236763702, 39.878059351133899 ], [ -75.264302457860694, 39.883586756532999 ], [ -75.265106780878796, 39.895774310388099 ], [ -75.250811323703701, 39.9024347549528 ] ] ] } },
{ "type": "Feature", "properties": { "objectid": 99, "grid_id": "872aacb2bffffff", "Shape__Area": 8691464.8046875, "Shape__Length": 10983.101947787885 }, "geometry": { "type": "Polygon", "coordinates": [ [ [ -75.234918005066106, 39.884716337255703 ], [ -75.219829073222499, 39.879185077592403 ], [ -75.219036704841102, 39.866999997895398 ], [ -75.233325710807506, 39.8603464703966 ], [ -75.248410312546895, 39.865874565623699 ], [ -75.249210236763702, 39.878059351133899 ], [ -75.234918005066106, 39.884716337255703 ] ] ] } },
{ "type": "Feature", "properties": { "objectid": 100, "grid_id": "872aacb2cffffff", "Shape__Area": 8707295.5546875, "Shape__Length": 10993.035121943618 }, "geometry": { "type": "Polygon", "coordinates": [ [ [ -75.207901394291099, 39.922408757144403 ], [ -75.192803799931497, 39.916871163464698 ], [ -75.192017774503199, 39.9046799622474 ], [ -75.206321773230201, 39.898026643813303 ], [ -75.221415034960003, 39.903561069981102 ], [ -75.222208630394903, 39.915751980474397 ], [ -75.207901394291099, 39.922408757144403 ] ] ] } },
{ "type": "Feature", "properties": { "objectid": 101, "grid_id": "872aacb2dffffff", "Shape__Area": 8699662.3046875, "Shape__Length": 10988.247792743898 }, "geometry": { "type": "Polygon", "coordinates": [ [ [ -75.192017774503199, 39.9046799622474 ], [ -75.176927815257301, 39.899141681599197 ], [ -75.176146178001702, 39.886953251999103 ], [ -75.190446937688804, 39.880303390821503 ], [ -75.205532572448604, 39.885838502449801 ], [ -75.206321773230201, 39.898026643813303 ], [ -75.192017774503199, 39.9046799622474 ] ] ] } },
{ "type": "Feature", "properties": { "objectid": 102, "grid_id": "872aacb2effffff", "Shape__Area": 8707006.10546875, "Shape__Length": 10992.852448067764 }, "geometry": { "type": "Polygon", "coordinates": [ [ [ -75.237309524763106, 39.921285715978001 ], [ -75.222208630394903, 39.915751980474397 ], [ -75.221415034960003, 39.903561069981102 ], [ -75.235714767284307, 39.896904186693199 ], [ -75.250811323703701, 39.9024347549528 ], [ -75.251612487008302, 39.914625372156202 ], [ -75.237309524763106, 39.921285715978001 ] ] ] } },
{ "type": "Feature", "properties": { "objectid": 103, "grid_id": "872aacb35ffffff", "Shape__Area": 8729935.859375, "Shape__Length": 11007.221377940084 }, "geometry": { "type": "Polygon", "coordinates": [ [ [ -75.285065268269406, 39.974472051363001 ], [ -75.269941447883696, 39.968940416979002 ], [ -75.269134630689905, 39.956741213345801 ], [ -75.283444049245105, 39.950073944432603 ], [ -75.298563511661399, 39.955602413966602 ], [ -75.299377913284999, 39.967801315643101 ], [ -75.285065268269406, 39.974472051363001 ] ] ] } }
]
}
